Site,Network(s),City,Country,Agency,Lat,Long,Height (m),Site,Receiver,Antenna,Radome,Calibration,Last RINEX2,Last RINEX3,Sat System,Site
ABMF00GLP,IGS,Les Abymes,Guadeloupe,IGN,16.2623056,-61.5275306,-25,ABMF00GLP,SEPT POLARX5,TRM57971.00,NONE,ROBOT,2020-10-20,2020-10-20,GPS+GLO+GAL+BDS+SBAS,ABMF00GLP
ABPO00MDG,IGS,Antananarivo,Madagascar,JPL,-19.018306,47.2292117,1552.9923,ABPO00MDG,SEPT POLARX5,ASH701945G_M,SCIT,FIELD,2020-10-20,2020-10-19,GPS+GLO+GAL+BDS+QZSS,ABPO00MDG
ACRG00GHA,IGS,Accra,Ghana,GFZ,5.6414778,-0.2071111,83.5,ACRG00GHA,JAVAD TR_G3TH,JAV_RINGANT_G3T,NONE,ROBOT,n/a,2020-10-20,GPS+GLO+GAL,ACRG00GHA
ADIS00ETH,IGS,Addis Ababa,Ethiopia,BKG,9.035134,38.7663017,2439.154,ADIS00ETH,JPS LEGACY,TRM29659.00,NONE,ROBOT,2020-10-20,n/a,GPS+GLO,ADIS00ETH
AGGO00ARG,IGS,La Plata,Argentina,BKG,-34.8737083,-58.1398611,42.085,AGGO00ARG,LEICA GRX1200+GNSS,LEIAR25.R4,LEIT,ROBOT,2020-10-20,2020-10-20,GPS+GLO+GAL+SBAS,AGGO00ARG
AIRA00JPN,IGS,Aira,Japan,GSI,31.8240611,130.5995917,314.64,AIRA00JPN,TRIMBLE NETR9,TRM59800.00,SCIS,ROBOT,2020-10-20,2020-10-19,GPS+GLO+GAL+QZSS,AIRA00JPN
AJAC00FRA,IGS,Ajaccio,France,IGN,41.92745,8.7626083,98.8,AJAC00FRA,SEPT POLARX5,TRM115000.00,NONE,ROBOT,2020-07-22,2020-07-22,GPS+GLO+GAL+BDS+SBAS,AJAC00FRA
ALBH00CAN,IGS,Victoria,Canada,GSC,48.3898,-123.4874,32,ALBH00CAN,SEPT POLARX5,TRM59800.00,SCIS,ROBOT,2020-10-20,2020-10-19,GPS+GLO+GAL,ALBH00CAN
ALGO00CAN,IGS,Algonquin Park,Canada,NRCan,45.9588,-78.0714,202,ALGO00CAN,SEPT POLARX5,AOAD/M_T,NONE,ROBOT,2020-10-20,2020-10-19,GPS+GLO+GAL,ALGO00CAN
ALIC00AUS,IGS,Alice Springs,Australia,GA,-23.670125,133.8855139,603.4,ALIC00AUS,LEICA GR25,LEIAR25.R3,NONE,ROBOT,2020-10-15,2020-10-15,GPS+GLO+GAL+BDS+QZSS,ALIC00AUS
ALRT00CAN,IGS,Alert (Ellesmere Island),Canada,NRCan/GSD,82.4942944,-62.3404611,78.11,ALRT00CAN,ASHTECH UZ-12,ASH701945D_M,NONE,ROBOT,2019-06-17,n/a,GPS,ALRT00CAN
AMC400USA,IGS,Colorado Springs,United States of America,USNO,38.803125,-104.5245972,1911.3941,AMC400USA,SEPT POLARX5TR,TPSCR.G5C,NONE,ROBOT,2020-07-22,2020-07-22,GPS+GLO+GAL+BDS+QZSS,AMC400USA
ANKR00TUR,IGS,Ankara,Turkey,GCM,39.8875111,32.7585778,974.8,ANKR00TUR,LEICA GR30,LEIAR10,NONE,ROBOT,2020-10-20,2020-10-19,GPS+GLO+GAL+BDS+QZSS+SBAS,ANKR00TUR
ANMG00MYS,IGS,Putrajaya,Malaysia,JAXA,2.7846483,101.5066022,15.002,ANMG00MYS,TRIMBLE NETR9,JAVRINGANT_DM,SCIS,ROBOT,n/a,2020-10-20,GPS+GLO+GAL+BDS+QZSS,ANMG00MYS
ANTC00CHL,IGS,Los Angeles,Chile,NSC,-37.3387028,-71.53205,745.4,ANTC00CHL,TRIMBLE NETR9,ASH700936D_M,SNOW,ROBOT,2020-09-23,n/a,GPS+GLO,ANTC00CHL
AREG00PER,IGS,Arequipa,Peru,CNES,-16.4654233,-71.4929041,2489.337,AREG00PER,SEPT POLARX5,TRM59800.00,NONE,ROBOT,2020-10-20,2020-10-20,GPS+GLO+GAL+BDS+SBAS,AREG00PER
AREQ00PER,IGS,Arequipa,Peru,JPL,-16.465517,-71.4927967,2488.9226,AREQ00PER,JAVAD TRE_G3TH DELTA,JAVRINGANT_DM,NONE,ROBOT,2020-10-20,2020-10-19,GPS+GLO+GAL+BDS,AREQ00PER
ARHT00ATA,IGS,McMurdo Station,Antarctica,JPL,-77.8294361,166.6636528,135.336,ARHT00ATA,JAVAD TRE_3 DELTA,JAVRINGANT_DM,SCIS,ROBOT,2020-10-19,2020-10-19,GPS+GLO+GAL+BDS+QZSS+IRNSS,ARHT00ATA
ARTU00RUS,IGS,Arti,Russian Federation,RDAAC,56.4298222,58.5604528,247.511,ARTU00RUS,JAVAD TRE_G3TH DELTA,ASH700936D_M,DOME,n/a,2020-10-20,n/a,GPS+GLO,ARTU00RUS
ARUC00ARM,IGS,Aruch-Yerevan,Armenia,JPL,40.2857222,44.0855833,1222,ARUC00ARM,SEPT POLARX5,ASH701945C_M,SCIS,ROBOT,2020-10-19,2020-10-19,GPS+GLO+GAL+BDS+QZSS,ARUC00ARM
ASCG00SHN,IGS,Ascension Island,"Saint Helena, Ascension and Tristan Da Cunha",CNES,-7.916281,-14.3326645,37.953,ASCG00SHN,TRIMBLE NETR9,TRM59800.00,NONE,ROBOT,2020-10-20,2020-10-20,GPS+GLO+GAL+BDS+SBAS,ASCG00SHN
ASPA00USA,IGS,Pago Pago,United States,NGS,-14.3260944,-170.7224333,53.7,ASPA00USA,TRIMBLE NETR5,TRM55971.00,NONE,ROBOT,2020-10-20,n/a,GPS+GLO,ASPA00USA
ATRU00KAZ,IGS,Atyrau,Kazakhstan,JSC KGS,47.1308806,51.9537667,-32.0524,ATRU00KAZ,LEICA GR10,LEIAR25.R4,LEIT,ROBOT,2020-10-20,2020-10-20,GPS+GLO+GAL+SBAS,ATRU00KAZ
AUCK00NZL,IGS,Whangaparaoa Peninsula,New Zealand,GNS,-36.6028,174.8344,132.711,AUCK00NZL,TRIMBLE ALLOY,TRM115000.00,NONE,ROBOT,2020-10-20,2019-01-22,GPS+GLO+GAL+BDS+QZSS,AUCK00NZL
BADG00RUS,IGS,Badary,Russian Federation,IAA,51.7697056,102.2349806,811.4,BADG00RUS,JAVAD TRE_G3TH DELTA,JAVRINGANT_DM,JVDM,ROBOT,2020-10-20,n/a,GPS+GLO,BADG00RUS
BAIE00CAN,IGS,BAIE COMEAU,Canada,NRCan,49.186825,-68.2633278,27.5,BAIE00CAN,TPS NET-G5,TPSCR.G3,NONE,ROBOT,2020-10-20,2020-10-19,GPS+GLO,BAIE00CAN
BAKE00CAN,IGS,Baker Lake,Canada,NRCan,64.3178194,-96.0023444,4.4,BAKE00CAN,TPS NET-G3A,TPSCR.G3,NONE,ROBOT,2020-10-20,2020-10-19,GPS+GLO,BAKE00CAN
BAKO00IDN,IGS,Cibinong,Indonesia,BAKOSURTANAL,-6.49,106.85,158.18,BAKO00IDN,LEICA GR50,LEIAR20,LEIM,ROBOT,2020-10-20,2020-10-20,GPS+GLO+GAL+BDS+QZSS+SBAS,BAKO00IDN
BAMF00CAN,IGS,Bamfield,Canada,GSC,48.8353167,-125.1350889,11.1,BAMF00CAN,SEPT POLARX5,SEPCHOKE_B3E6,SPKE,ROBOT,2020-10-20,n/a,GPS+GLO+GAL,BAMF00CAN
BARH00USA,IGS,Bar Harbor,United States,NGS,44.3950472,-68.2216917,6.8,BARH00USA,LEICA GR30,LEIAR10,NONE,ROBOT,2020-10-20,n/a,GPS+GLO,BARH00USA
BELE00BRA,IGS,Belem,Brazil,IBGE,-1.4087944,-48.4625472,9.08,BELE00BRA,TRIMBLE NETR9,TRM115000.00,NONE,ROBOT,2020-10-19,2020-10-19,GPS+GLO+GAL+BDS,BELE00BRA
BHR300BHR,IGS,Manama,Bahrain,NGA,26.2091417,50.6081444,-13.9,BHR300BHR,ITT 3750300,TPSCR.G5,TPSH,ROBOT,2020-10-18,n/a,GPS,BHR300BHR
BHR400BHR,IGS,Manama,Bahrain,NGA,26.2091417,50.6081444,-13.9,BHR400BHR,ITT 3750300,TPSCR.G5,TPSH,ROBOT,2020-10-18,n/a,GPS,BHR400BHR
BIK000KGZ,IGS,Bishkek,Kyrgyzstan,GFZ,42.8541944,74.5331944,749.2,BIK000KGZ,JAVAD TRE_G3TH DELTA,JAV_RINGANT_G3T,NONE,ROBOT,2018-12-16,2020-10-20,GPS+GLO+GAL,BIK000KGZ
BILL00USA,IGS,Temecula,United States of America,UNAVCO,33.5782417,-117.0646,470.06,BILL00USA,SEPT POLARX5,TRM59800.99,SCIT,ROBOT,2020-10-20,2020-10-20,GPS+GLO+GAL+BDS+QZSS+SBAS,BILL00USA
BJCO00BEN,IGS,Cotonou,Benin,IGN-BJ,6.3846639,2.4500222,30.7,BJCO00BEN,TRIMBLE NETR5,TRM59800.00,NONE,ROBOT,2020-03-15,n/a,GPS+GLO,BJCO00BEN
BJFS00CHN,IGS,Fangshan,China,CASM,39.608625,115.8924611,87.413,BJFS00CHN,TRIMBLE NETR9,TRM59900.00,SCIS,ROBOT,2020-10-20,n/a,GPS+GLO,BJFS00CHN
BJNM00CHN,IGS,Beijing,China,NIM,40.245325,116.2241278,118.6,BJNM00CHN,SEPT POLARX3ETR,NOV702GG,NONE,ROBOT,2020-07-08,n/a,GPS+GLO,BJNM00CHN
BLYT00USA,IGS,Blythe,United States of America,USGS,33.6104139,-114.71485,85.9,BLYT00USA,TRIMBLE NETRS,ASH701945B_M,ENCL,n/a,2020-10-20,n/a,GPS,BLYT00USA
BNOA00IDN,IGS,Benoa,Indonesia,PGF,-8.7465,115.2099167,39.056,BNOA00IDN,TRIMBLE NETR9,TRM59900.00,SCIS,ROBOT,2020-10-20,n/a,GPS,BNOA00IDN
BOAV00BRA,IGS,Boa Vista,Brazil,IBGE,2.8451806,-60.7011139,69.48,BOAV00BRA,TRIMBLE NETR9,TRM115000.00,NONE,ROBOT,2020-10-19,2020-10-19,GPS+GLO+GAL+BDS,BOAV00BRA
BOGI00POL,IGS,Borowa Gora,Poland,IGiK,52.4749889,21.0352111,139.9,BOGI00POL,JAVAD TRE_G3T DELTA,ASH701945C_M,SNOW,ROBOT,2020-10-20,2020-10-19,GPS+GLO+GAL,BOGI00POL
BOGT00COL,IGS,Bogota,Colombia,JPL,4.6400731,-74.0809396,2576.7782,BOGT00COL,JAVAD TRE_3 DELTA,JAVRINGANT_DM,NONE,ROBOT,2020-10-20,2020-10-19,GPS+GLO+GAL+BDS+QZSS,BOGT00COL
BOR100POL,IGS,Borowiec,Poland,SRC PAS,52.2769556,17.0734583,124.9,BOR100POL,TRIMBLE NETR9,TRM59800.00,NONE,ROBOT,2020-10-20,2020-10-19,GPS+GLO+GAL+BDS+QZSS+SBAS,BOR100POL
BRAZ00BRA,IGS,Brasilia,Brazil,IBGE,-15.9474,-47.8778,1106.0413,BRAZ00BRA,TRIMBLE NETR9,TRM57971.00,NONE,ROBOT,2020-05-18,2020-10-19,GPS+GLO+GAL,BRAZ00BRA
BREW00USA,IGS,Brewster,United States of America,JPL,48.131524,-119.6826335,238.6273,BREW00USA,SEPT POLARX5TR,ASH701945C_M,SCIT,FIELD,2020-10-20,2020-10-19,GPS+GLO+GAL+BDS+QZSS,BREW00USA
BRFT00BRA,IGS,Eusebio,Brazil,NGS,-3.8774472,-38.4255361,21.7,BRFT00BRA,LEICA GRX1200PRO,LEIAT504,NONE,ROBOT,2020-10-20,n/a,GPS,BRFT00BRA
BRMU00GBR,IGS,Town of St. George,United Kingdom,NGS,32.3704,-64.6962722,-11.6,BRMU00GBR,LEICA GRX1200GGPRO,JAVRINGANT_DM,NONE,ROBOT,2020-09-27,n/a,GPS+GLO,BRMU00GBR
BRST00FRA,IGS,Brest,France,IGN,48.3804972,-4.4966,65.5,BRST00FRA,TRIMBLE ALLOY,TRM57971.00,NONE,ROBOT,2020-10-20,2020-10-20,GPS+GLO+GAL+BDS+SBAS,BRST00FRA
BRUN00BRN,IGS,Gadong,Brunei,JAXA,4.9711778,114.9523611,90.669,BRUN00BRN,TRIMBLE NETR9,JAVRINGANT_DM,SCIS,ROBOT,n/a,2020-06-19,GPS+GLO+GAL+BDS+QZSS,BRUN00BRN
BRUX00BEL,IGS,Brussels,Belgium,ROB,50.7980639,4.3585639,158.3,BRUX00BEL,SEPT POLARX5TR,JAVRINGANT_DM,NONE,ROBOT,2020-10-20,2020-10-20,GPS+GLO+GAL+BDS+QZSS+IRNSS+SBAS,BRUX00BEL
BSHM00ISR,IGS,Haifa,Israel,JPL,32.779,35.02,225.1,BSHM00ISR,JAVAD TRE_3 DELTA,TRM59800.00,SCIS,ROBOT,2020-10-20,2020-10-19,GPS+GLO+GAL+BDS+QZSS+IRNSS,BSHM00ISR
BTNG00IDN,IGS,Bitung,Indonesia,PGF,1.4389222,125.1904306,74.993,BTNG00IDN,TRIMBLE NETR9,TRM59900.00,SCIS,ROBOT,2019-01-20,n/a,GPS,BTNG00IDN
BUCU00ROU,IGS,Bucuresti,Romania,BKG,44.4639444,26.1257389,143.2,BUCU00ROU,LEICA GR50,LEIAR25.R4,LEIT,ROBOT,2020-10-06,2020-10-19,GPS+GLO+GAL+BDS+SBAS,BUCU00ROU
CAGS00CAN,IGS,Gatineau,Canada,NRCan/GSD,45.585,-75.8073,235,CAGS00CAN,TRIMBLE NETR8,TRM59800.00,NONE,ROBOT,2020-10-20,n/a,GPS,CAGS00CAN
CAS100ATA,IGS,Casey,Antarctica,GA,-66.2834,110.5197,22.6,CAS100ATA,SEPT POLARXS,LEIAR25.R3,LEIT,ROBOT,2020-10-17,2020-10-17,GPS+GLO+GAL+BDS+QZSS,CAS100ATA
CCJ200JPN,IGS,Ogasawara,Japan,GSI,27.0675306,142.1950278,104.214,CCJ200JPN,TRIMBLE NETR9,TRM59800.00,SCIS,ROBOT,2020-10-20,2020-10-19,GPS+GLO+GAL+QZSS,CCJ200JPN
CEBR00ESP,IGS,Cebreros,Spain,ESOC,40.4534306,-4.3678528,775.8,CEBR00ESP,SEPT POLARX5TR,SEPCHOKE_B3E6,NONE,ROBOT,2020-04-05,2020-10-20,GPS+GLO+GAL+BDS+SBAS,CEBR00ESP
CEDU00AUS,IGS,Ceduna,Australia,GA,-31.8666722,133.8098278,144.8,CEDU00AUS,SEPT POLARX5,AOAD/M_T,NONE,ROBOT,2020-10-01,2020-10-15,GPS+GLO+GAL+BDS+QZSS+IRNSS,CEDU00AUS
CGGN00NGA,IGS,TORO,Nigeria,JPL,10.1230948,9.1183115,916.6953,CGGN00NGA,JAVAD TRE_G3TH DELTA,ASH701945B_M,NONE,COPIED,2016-07-11,n/a,GPS+GLO,CGGN00NGA
CHAN00CHN,IGS,CHANGCHUN,China,CHO,43.7905,125.4433,268.3,CHAN00CHN,ASHTECH UZ-12,ASH701945E_M,NONE,ROBOT,2020-10-20,n/a,GPS,CHAN00CHN
CHIL00USA,IGS,San Gabriel Mountains,United States of America,USGS,34.3334222,-118.0259972,1567.51,CHIL00USA,TPS NET-G3A,TPSCR.G3,SCPL,n/a,2020-09-17,n/a,GPS+GLO,CHIL00USA
CHOF00JPN,IGS,Chofu,Japan,DLR/GSOC,35.6745444,139.5310569,93.9,CHOF00JPN,JAVAD TRE_G3TH DELTA,TRM57971.00,NONE,ROBOT,n/a,2020-10-20,GPS+GLO+GAL+QZSS+IRNSS+SBAS,CHOF00JPN
CHPG00BRA,IGS,Cachoeira Paulista,Brazil,CNES,-22.6822731,-45.0023756,566.25,CHPG00BRA,TRIMBLE ALLOY,TRM59800.00,NONE,ROBOT,2020-10-20,2020-10-20,GPS+GLO+GAL+BDS+SBAS,CHPG00BRA
CHPI00BRA,IGS,Cachoeira Paulista,Brazil,JPL,-22.6871444,-44.9851583,617.4176,CHPI00BRA,SEPT POLARX5,TPSCR.G3,NONE,ROBOT,2020-10-20,2020-10-19,GPS+GLO+GAL+BDS,CHPI00BRA
CHTI00NZL,IGS,Wharekauri,New Zealand,GNS,-43.735475,-176.6171139,75.7,CHTI00NZL,TRIMBLE ALLOY,TRM115000.00,NONE,ROBOT,2020-10-20,2019-01-22,GPS+GLO+GAL+BDS+QZSS,CHTI00NZL
CHUM00KAZ,IGS,Chumysh,Kazakhstan,JPL,42.9985012,74.7510995,716.3321,CHUM00KAZ,TRIMBLE NETRS,AOAD/M_T,NONE,ROBOT,2020-10-20,n/a,GPS,CHUM00KAZ
CHUR00CAN,IGS,CHURCHILL,Canada,NRCan,58.7591,-94.0887,-18.9,CHUR00CAN,TPS NET-G3A,ASH701945E_M,NONE,ROBOT,2020-10-20,2020-10-19,GPS+GLO,CHUR00CAN
CHWK00CAN,IGS,Chilliwack,Canada,GSC,49.1566,-122.0084,170,CHWK00CAN,TRIMBLE NETRS,TRM29659.00,SCIS,ROBOT,2020-10-20,n/a,GPS,CHWK00CAN
CIBG00IDN,IGS,Cibinong,Indonesia,CNES,-6.4903648,106.8491735,169.1334,CIBG00IDN,TRIMBLE NETR9,LEIAR25.R4,NONE,ROBOT,2020-10-20,2020-10-20,GPS+GLO+GAL+BDS+QZSS+SBAS,CIBG00IDN
CIT100USA,IGS,Pasadena,United States of America,USGS,34.1367083,-118.1272861,215.35,CIT100USA,TRIMBLE NETR9,TRM57971.00,NONE,ROBOT,2020-10-20,n/a,GPS+GLO+SBAS,CIT100USA
CKIS00COK,IGS,Rarotonga,Cook Islands,GA,-21.2009361,-159.8006167,18.4,CKIS00COK,TRIMBLE NETR9,JAVRINGANT_DM,NONE,ROBOT,2020-10-19,2020-10-20,GPS+GLO+GAL+BDS+QZSS,CKIS00COK
CKSV00TWN,IGS,Tainan,Taiwan,NLSC,22.9988528,120.2200083,59.6,CKSV00TWN,TRIMBLE ALLOY,TPSCR.G3,TPSH,ROBOT,2020-10-20,2020-10-20,GPS+GLO+GAL+BDS+QZSS+SBAS,CKSV00TWN
CMP900USA,IGS,Sylmar,United States of America,USGS,34.3531806,-118.411425,1137.99,CMP900USA,TPS NET-G3A,TPSCR.G3,SCIS,ROBOT,2020-10-20,n/a,GPS+GLO,CMP900USA
CMUM00THA,IGS,Chiang Mai,Thailand,JAXA,18.760875,98.9323778,308.962,CMUM00THA,TRIMBLE NETR9,JAV_GRANT-G3T,NONE,ROBOT,n/a,2020-10-19,GPS+GLO+GAL+BDS+QZSS,CMUM00THA
CNMR00USA,IGS,Saipan,United States,NGS,15.2296972,145.7430917,64.4,CNMR00USA,TRIMBLE NETR9,TRM55971.00,NONE,ROBOT,2020-10-18,n/a,GPS+GLO+GAL,CNMR00USA
COCO00AUS,IGS,Cocos (Keeling) Island,Australia,GA,-12.1883,96.8339,-35.2,COCO00AUS,SEPT POLARX5,AOAD/M_T,NONE,ROBOT,2020-09-30,2020-10-20,GPS+QZSS+GAL+BDS+GLO+IRNSS,COCO00AUS
CORD00ARG,IGS,Cordoba,Argentina,JPL,-31.5284356,-64.4700483,747.0654,CORD00ARG,JAVAD TRE_G3TH DELTA,TPSCR.G3,NONE,ROBOT,2020-10-20,2020-10-19,GPS+GLO+GAL,CORD00ARG
COSO00USA,IGS,Coso Junction,United States of America,USGS,35.9823444,-117.8088889,1455.16,COSO00USA,SEPT POLARX5,TWIVC6150,SCIS,ROBOT,2020-10-20,n/a,GPS+GLO+GAL+SBAS,COSO00USA
COTE00ATA,IGS,N/A,Antarctica,UNAVCO,-77.8059,161.9978,1878.1,COTE00ATA,TRIMBLE NETR9,TRM59800.00,SCIS,ROBOT,2020-10-20,n/a,GPS+GLO,COTE00ATA
COYQ00CHL,IGS,Coyhaique,Chile,NSC,-45.5143,-71.8921,476,COYQ00CHL,TRIMBLE NETR9,ASH700936D_M,SNOW,ROBOT,2020-01-26,n/a,GPS,COYQ00CHL
CPNM00THA,IGS,Chumphon,Thailand,JAXA,10.72465,99.3743778,9.143,CPNM00THA,TRIMBLE NETR9,JAVRINGANT_DM,SCIS,ROBOT,n/a,2020-10-20,GPS+GLO+GAL+BDS+QZSS,CPNM00THA
CPVG00CPV,IGS,Espargos,Cabo Verde,CNES,16.732062,-22.934933,94.089,CPVG00CPV,TRIMBLE NETR9,TRM59800.00,NONE,ROBOT,2020-10-20,2020-10-20,GPS+GLO+GAL+BDS+SBAS,CPVG00CPV
CRAO00UKR,IGS,Simeiz,Ukraine,JPL,44.4132611,33.9909833,365.8,CRAO00UKR,ASHTECH UZ-12,ASH701945C_M,SCIS,ROBOT,2019-08-24,n/a,GPS,CRAO00UKR
CRFP00USA,IGS,Yucaipa,United States of America,USGS,34.0390528,-117.0996833,688.82,CRFP00USA,TRIMBLE NETR9,TRM57971.00,NONE,ROBOT,2020-10-20,n/a,GPS,CRFP00USA
CRO100VIR,IGS,Christiansted,"Virgin Islands, U.S.",JPL,17.7568995,-64.5843186,-31.4974,CRO100VIR,JAVAD TRE_3 DELTA,JAVRINGANT_DM,SCIS,ROBOT,2020-10-20,2020-10-19,GPS+GLO+GAL+BDS+QZSS,CRO100VIR
CUSV00THA,IGS,Patumwan,Thailand,JPL,13.7359139,100.5339083,76.06,CUSV00THA,JAVAD TRE_3 DELTA,JAVRINGANT_DM,NONE,ROBOT,2020-10-20,2020-10-19,GPS+GLO+GAL+BDS+QZSS,CUSV00THA
CUT000AUS,IGS,"Bentley, Perth",Australia,CUT,-32.0038889,115.8948,24,CUT000AUS,TRIMBLE NETR9,TRM59800.00,SCIS,ROBOT,2020-09-29,2020-10-20,GPS+GLO+GAL+BDS+QZSS+SBAS,CUT000AUS
CUUT00THA,IGS,Chulalongkorn University,Thailand,CU,13.7359912,100.5339348,74.296,CUUT00THA,TRIMBLE NETR9,TRM57971.00,NONE,ROBOT,n/a,2020-10-20,GPS+GLO+GAL+BDS+QZSS+SBAS,CUUT00THA
CZTG00ATF,IGS,Alfred-Faure,French Southern Territories,CNES,-46.4318944,51.8554806,202.8,CZTG00ATF,TRIMBLE NETR9,LEIAR20,LEIM,ROBOT,2020-10-20,2020-10-20,GPS+GLO+GAL+SBAS,CZTG00ATF
DAE200KOR,IGS,Daejeon,South Korea,JAXA,36.399425,127.3744806,116.824,DAE200KOR,TRIMBLE NETR9,TRM59800.00,SCIS,ROBOT,n/a,2020-10-20,GPS+GLO+GAL+BDS+QZSS,DAE200KOR
DAEJ00KOR,IGS,Daejeon,Republic of Korea,KASI,36.3994,127.3745,117.037,DAEJ00KOR,TRIMBLE NETR9,TRM59800.00,SCIS,ROBOT,2020-10-20,2020-10-19,GPS+GLO+GAL+BDS+QZSS,DAEJ00KOR
DAKR00SEN,IGS,Dakar,Senegal,ANAT/DTGC,14.7212222,-17.4394722,51,DAKR00SEN,TPS NET-G3A,TPSCR.G3,NONE,ROBOT,2020-10-20,n/a,GPS+GLO,DAKR00SEN
DARW00AUS,IGS,Darwin,Australia,GA,-12.8437111,131.1327361,125.2,DARW00AUS,SEPT POLARX5,JAVRINGANT_DM,NONE,ROBOT,2020-10-01,2020-10-20,GPS+GLO+BDS+QZSS+IRNSS+GAL,DARW00AUS
DAV100ATA,IGS,Davis,Antarctica,GA,-68.5773,77.9726,44.5,DAV100ATA,SEPT POLARX5,LEIAR25.R3,LEIT,ROBOT,2020-10-01,2020-10-20,GPS+GLO+GAL+BDS+QZSS+IRNSS,DAV100ATA
DEAR00ZAF,IGS,DE AAR,South Africa,NGI,-30.6652056,23.9926389,1321.7,DEAR00ZAF,TRIMBLE NETRS,ASH701941.B,SCIS,ROBOT,2020-09-29,n/a,GPS,DEAR00ZAF
DGAR00GBR,IGS,Diego Garcia Island,United Kingdom,JPL,-7.2696843,72.3702402,-64.7455,DGAR00GBR,SEPT POLARX5,ASH701945E_M,NONE,ROBOT,2020-10-20,2020-10-19,GPS+GLO+GAL+BDS+QZSS+IRNSS,DGAR00GBR
DHLG00USA,IGS,Durmid Hill,United States of America,USGS,33.3898056,-115.7880278,-83.05,DHLG00USA,TPS NET-G3A,TPSCR.G3,SCIS,ROBOT,2020-10-20,n/a,GPS+GLO,DHLG00USA
DJIG00DJI,IGS,Observatoire Geophysique dÂ’Arta,Djibouti,CNES,11.5262876,42.8470645,711.409,DJIG00DJI,SEPT POLARX5,TRM59800.00,NONE,ROBOT,2020-10-20,2020-10-20,GPS+GLO+GAL+BDS+SBAS+IRNSS,DJIG00DJI
DLF100NLD,IGS,Delft,Netherlands,DUT,51.9860194,4.3874583,75.8,DLF100NLD,TRIMBLE NETR9,LEIAR25.R3,LEIT,ROBOT,2020-10-20,2020-10-20,GPS+GLO+GAL+BDS+QZSS+SBAS,DLF100NLD
DLTV00VNM,IGS,Da Lat,Vietnam,JAXA,11.945,108.482,1587.62,DLTV00VNM,TRIMBLE NETR9,JAVRINGANT_DM,SCIS,ROBOT,n/a,2017-11-24,GPS+GLO+GAL+BDS+QZSS,DLTV00VNM
DRAG00ISR,IGS,Metzoki dragot,Israel,SOI,31.5932,35.3920694,31.8,DRAG00ISR,JAVAD TRE_3 DELTA,ASH700936D_M,SNOW,ROBOT,2020-10-20,n/a,GPS+GLO,DRAG00ISR
DRAO00CAN,IGS,Penticton,Canada,GSC,49.3226,-119.625,542,DRAO00CAN,SEPT POLARX5,TRM59800.00,SCIS,ROBOT,2020-10-20,2020-10-19,GPS+GLO+GAL,DRAO00CAN
DUBO00CAN,IGS,LAC DU BONNET,Canada,NRCan,50.2588,-95.8662,251,DUBO00CAN,SEPT POLARX5,AOAD/M_T,NONE,ROBOT,2020-10-20,2020-10-19,GPS+GLO+GAL,DUBO00CAN
DUMG00ATA,IGS,"Antarctic base of ""Dumont d'Urville""",Antarctica,CNES,-66.6651694,140.0022,-3.38,DUMG00ATA,LEICA GR25,LEIAR25.R4,LEIT,ROBOT,2020-10-20,2020-10-20,GPS+GLO+GAL+BDS+QZSS+SBAS,DUMG00ATA
DUND00NZL,IGS,Dunedin,New Zealand,GNS,-45.883675,170.597175,386.9,DUND00NZL,TRIMBLE ALLOY,TRM115000.00,NONE,ROBOT,2020-10-20,2019-01-22,GPS+GLO+GAL+BDS+QZSS,DUND00NZL
DYNG00GRC,IGS,DIONYSOS,Greece,CNES,38.0785528,23.9324333,510.6,DYNG00GRC,TRIMBLE NETR9,TRM59800.00,NONE,ROBOT,2020-10-20,2020-10-20,GPS+GLO+GAL+BDS+SBAS,DYNG00GRC
EBRE00ESP,IGS,Roquetes,Spain,ICGC,40.8208861,0.49235,107.3,EBRE00ESP,LEICA GR50,LEIAR25.R4,NONE,ROBOT,2020-04-14,2020-10-20,GPS+GLO+GAL+BDS,EBRE00ESP
EIL300USA,IGS,Fairbanks,United States,NGA,64.6878889,-147.1130139,177.2,EIL300USA,ITT 3750300,TPSCR.G5,TPSH,ROBOT,2020-10-18,n/a,GPS,EIL300USA
EIL400USA,IGS,Fairbanks,United States,NGA,64.6878889,-147.1130139,177.2,EIL400USA,ITT 3750300,TPSCR.G5,TPSH,ROBOT,2020-10-18,n/a,GPS,EIL400USA
ENAO00PRT,IGS,Santa Cruz da Graciosa,Portugal,GFZ,39.0912,-28.0260111,91.9,ENAO00PRT,JAVAD TRE_3,JAVRINGANT_G5T,NONE,ROBOT,n/a,2020-10-20,GPS+GLO+GAL+BDS+QZSS+IRNSS+SBAS,ENAO00PRT
EPRT00USA,IGS,Eastport,United States,NGS,44.9087111,-66.9921306,30.4,EPRT00USA,LEICA GR50,LEIAR20,LEIM,ROBOT,2019-03-23,n/a,GPS+GLO+GAL,EPRT00USA
ESCU00CAN,IGS,Escuminac,Canada,NRCan/GSD,47.0734039,-64.7987103,-16.02,ESCU00CAN,TRIMBLE NETR9,ASH701945E_M,NONE,ROBOT,2020-10-20,n/a,GPS,ESCU00CAN
EUSM00MYS,IGS,Nibong Tebal,Malaysia,JAXA,5.1455694,100.4940944,18.761,EUSM00MYS,TRIMBLE NETR9,JAVRINGANT_DM,SCIS,ROBOT,n/a,2018-06-28,GPS+GLO+GAL+BDS+QZSS,EUSM00MYS
FAA100PYF,IGS,Faaa,French Polynesia,ESOC,-17.5553139,-149.6143,12.35,FAA100PYF,SEPT POLARX5,LEIAR25.R4,NONE,ROBOT,2020-04-05,2020-10-20,GPS+GLO+GAL+BDS+QZSS+SBAS,FAA100PYF
FAIR00USA,IGS,Fairbanks,United States,JPL,64.9779983,-147.4992396,319.1771,FAIR00USA,JAVAD TRE_G3TH DELTA,ASH701945G_M,JPLA,n/a,2020-10-20,2020-10-19,GPS+GLO+GAL+BDS+QZSS,FAIR00USA
FALE00WSM,IGS,Faleolo,Samoa,GNS,-13.8322,-171.9995,47.6,FALE00WSM,TRIMBLE NETRS,TRM41249.00,NONE,ROBOT,2017-12-28,n/a,GPS,FALE00WSM
FALK00FLK,IGS,Port Stanley,Falkland Islands (Malvinas),JPL,-51.6936522,-57.8740674,50.8407,FALK00FLK,SEPT POLARX5,ASH701945E_M,SCIT,FIELD,2020-10-20,2020-10-19,GPS+GLO+GAL+BDS,FALK00FLK
FFMJ00DEU,IGS,Frankfurt / Main,Germany,BKG,50.0905778,8.6649639,178.2,FFMJ00DEU,JAVAD TRE_3 DELTA,LEIAR25.R3,LEIT,ROBOT,2020-10-20,2020-10-20,GPS+GLO+GAL+BDS+SBAS,FFMJ00DEU
FLIN00CAN,IGS,CFS FLIN FLON,Canada,NRCan,54.7256,-101.978,320,FLIN00CAN,SEPT POLARX5,NOV750.R4,NOVS,ROBOT,2020-10-20,2020-10-19,GPS+GLO+GAL,FLIN00CAN
FLRS00PRT,IGS,Santa Cruz das Flores,Portugal,DGT,39.4538333,-31.1263889,79.9,FLRS00PRT,LEICA GRX1200GGPRO,LEIAT504GG,NONE,ROBOT,2020-07-12,n/a,GPS+GLO,FLRS00PRT
FRDN00CAN,IGS,Fredericton,Canada,NRCan,45.933,-66.659,95.9,FRDN00CAN,TPS NET-G3A,TPSCR.G3,NONE,ROBOT,2020-10-20,2020-10-19,GPS+GLO,FRDN00CAN
FTNA00WLF,IGS,Maopo'opo,French Polynesia,CNES,-14.3078031,-178.1209457,84.859,FTNA00WLF,TRIMBLE NETR9,TRM59800.00,NONE,ROBOT,2020-10-20,2020-10-19,GPS+GLO+GAL+BDS+QZSS+SBAS,FTNA00WLF
FUNC00PRT,IGS,Funchal,Portugal,DGT,32.6479472,-16.9076167,78.5,FUNC00PRT,LEICA GRX1200GGPRO,LEIAT504GG,NONE,ROBOT,2020-07-12,n/a,GPS+GLO,FUNC00PRT
GAMB00PYF,IGS,Rikitea,French Polynesia,CNES,-23.1303547,-134.9648236,80.66,GAMB00PYF,TRIMBLE NETR9,TRM59800.00,NONE,ROBOT,2020-10-19,2020-10-20,GPS+GLO+GAL+BDS+SBAS,GAMB00PYF
GAMG00KOR,IGS,Geochang,Republic of Korea,CNES,35.5900706,127.9196603,927.965,GAMG00KOR,SEPT POLARX5TR,LEIAR25.R4,LEIT,ROBOT,2020-10-20,2020-10-20,GPS+GLO+GAL+BDS+QZSS+SBAS+IRNSS,GAMG00KOR
GANP00SVK,IGS,Ganovce - Poprad,Slovakia,GKU,49.0347139,20.3229361,746,GANP00SVK,TRIMBLE ALLOY,TRM59800.00,SCIS,ROBOT,2020-10-11,2020-10-20,GPS+GLO+GAL+BDS+QZSS+IRNSS+SBAS,GANP00SVK
GCGO00USA,IGS,Fairbanks,United States of America,JPL,65.6390501,-147.8428653,319.3891,GCGO00USA,JAVAD TRE_3 DELTA,JAVRINGANT_DM,SCIS,ROBOT,2020-10-19,2020-10-19,GPS+GLO+GAL+BDS+QZSS+IRNSS,GCGO00USA
GENO00ITA,IGS,Genova,Italy,ASI,44.4194,8.9211167,153.5,GENO00ITA,LEICA GR30,LEIAR20,NONE,ROBOT,2020-08-03,2020-10-20,GPS+GLO+GAL+BDS+SBAS,GENO00ITA
GLPS00ECU,IGS,Puerto Ayora,Ecuador,JPL,-0.7429986,-90.3036686,1.7882,GLPS00ECU,JAVAD TRE_G3TH DELTA,ASH701945B_M,SCIT,FIELD,2020-10-20,2020-10-19,GPS+GLO+GAL+BDS,GLPS00ECU
GLSV00UKR,IGS,Kiev,Ukraine,MAO,50.3641778,30.4967389,226.8,GLSV00UKR,TRIMBLE NETR9,TRM115000.00,NONE,ROBOT,2020-10-20,2020-10-20,GPS+GLO+GAL+BDS+QZSS,GLSV00UKR
GMSD00JPN,IGS,Nakatane town,Japan,JAXA,30.5564456,131.0155636,142.6475,GMSD00JPN,TRIMBLE NETR9,TRM59800.00,SCIS,ROBOT,2020-10-20,2020-10-20,GPS+GLO+GAL+BDS+QZSS,GMSD00JPN
GODE00USA,IGS,Greenbelt,United States of America,JPL,39.0217276,-76.8268305,14.5046,GODE00USA,SEPT POLARX5TR,AOAD/M_T,JPLA,n/a,2020-10-20,2020-10-19,GPS+GLO+GAL+BDS,GODE00USA
GODN00USA,IGS,Greenbelt,United States of America,JPL,39.0211667,-76.8270833,18,GODN00USA,JAVAD TRE_3 DELTA,TPSCR.G3,SCIS,ROBOT,2020-10-19,2020-10-19,GPS+GLO+GAL+BDS+QZSS,GODN00USA
GODS00USA,IGS,Greenbelt,United States of America,JPL,39.0347778,-77.3869722,19.1,GODS00USA,JAVAD TRE_3 DELTA,JAVRINGANT_DM,SCIS,ROBOT,2020-10-19,2020-10-19,GPS+GLO+GAL+BDS+QZSS,GODS00USA
GODZ00USA,IGS,Greenbelt,United States,JPL,39.0217278,-76.8268278,14.509,GODZ00USA,JPS EGGDT,AOAD/M_T,JPLA,n/a,2020-10-20,n/a,GPS+GLO,GODZ00USA
GOL200USA,IGS,Goldstone,United States,JPL,35.4251556,-116.88925,986.6779,GOL200USA,ASHTECH UZ-12,AOAD/M_T,NONE,ROBOT,2020-10-20,n/a,GPS,GOL200USA
GOLD00USA,IGS,Goldstone,United States of America,JPL,35.4251556,-116.88925,986.6779,GOLD00USA,JAVAD TRE_G3TH DELTA,AOAD/M_T,NONE,ROBOT,2020-10-20,2020-10-19,GPS+GLO+GAL+BDS+QZSS,GOLD00USA
GOP600CZE,IGS,Ondrejov,Czechia,RIGTC GOP,49.9136667,14.7856028,592.6,GOP600CZE,SEPT POLARX5,SEPCHOKE_B3E6,SPKE,ROBOT,2020-10-20,2020-10-20,GPS+GLO+GAL+BDS+QZSS+IRNSS+SBAS,GOP600CZE
GOP700CZE,IGS,Ondrejov,Czechia,RIGTC GOP,49.9136667,14.7856028,592.6,GOP700CZE,TRIMBLE NETR9,SEPCHOKE_B3E6,SPKE,ROBOT,2020-10-20,2020-10-20,GPS+GLO+GAL+BDS+QZSS,GOP700CZE
GOPE00CZE,IGS,Ondrejov,Czechia,RIGTC GOP,49.9137056,14.7856222,592.6,GOPE00CZE,TRIMBLE ALLOY,TPSCR.G3,TPSH,ROBOT,2020-10-20,2020-10-19,GPS+GLO+GAL+BDS+IRNSS+SBAS,GOPE00CZE
GRAC00FRA,IGS,Caussols,France,IGN,43.7544861,6.9207611,1319.8,GRAC00FRA,LEICA GR25,TRM57971.00,NONE,ROBOT,2020-10-20,2020-10-20,GPS+GLO+GAL+BDS+SBAS,GRAC00FRA
GRAS00FRA,IGS,Caussols,France,CNES,43.7547389,6.920575,1319.3,GRAS00FRA,TRIMBLE NETR9,ASH701945E_M,NONE,ROBOT,2020-10-20,2020-10-20,GPS+GLO+GAL+BDS+SBAS,GRAS00FRA
GRAZ00AUT,IGS,Graz,Austria,BEV,47.0671278,15.493475,538.3,GRAZ00AUT,SEPT POLARX5,LEIAR25.R4,LEIT,ROBOT,2020-10-20,2020-10-19,GPS+GLO+GAL+BDS,GRAZ00AUT
GUAM00GUM,IGS,Dededo,Guam,JPL,13.5893306,144.8683583,201.914,GUAM00GUM,JAVAD TRE_3 DELTA,JAVRINGANT_DM,SCIS,ROBOT,2020-10-20,2020-10-19,GPS+GLO+GAL+BDS+QZSS,GUAM00GUM
GUAO00CHN,IGS,URUMQI,China,JPL,43.4711,87.1773,2049.2,GUAO00CHN,ASHTECH UZ-12,ASH701945B_M,NONE,COPIED,2016-03-14,n/a,GPS,GUAO00CHN
GUAT00GTM,IGS,Guatemala City,Guatemala,IGN-GT,14.5904028,-90.5201833,1519.9,GUAT00GTM,LEICA GRX1200GGPRO,LEIAR25.R3,LEIT,ROBOT,2020-10-20,n/a,GPS+GLO,GUAT00GTM
GUUG00GUM,IGS,Mangilao,United States,NGS,13.4332083,144.8027139,134.7,GUUG00GUM,LEICA GR50,SEPCHOKE_B3E6,SPKE,ROBOT,2020-10-08,n/a,GPS+GLO+GAL,GUUG00GUM
HAL100USA,IGS,Haleakala Observatories,United States of America,JPL,20.7075056,-156.2561944,3049,HAL100USA,SEPT POLARX5,JAVRINGANT_DM,SCIS,ROBOT,2020-10-19,2020-10-19,GPS+GLO+GAL+BDS+QZSS,HAL100USA
HAMD00IRN,IGS,HAMEDAN,Islamic Republic of Iran,NCC,34.8690827,48.5343064,1750.9381,HAMD00IRN,TRIMBLE NETR9,TRM57971.00,SCIT,ROBOT,2020-07-31,n/a,GPS+GLO,HAMD00IRN
HARB00ZAF,IGS,Pretoria,South Africa,CNES,-25.8869617,27.7072458,1558.078,HARB00ZAF,SEPT POLARX5TR,TRM59800.00,NONE,ROBOT,2020-10-20,2020-10-20,GPS+GLO+GAL+BDS+SBAS+IRNSS,HARB00ZAF
HERS00GBR,IGS,Hailsham,United Kingdom,NSGF,50.8673,0.3362,76.5,HERS00GBR,SEPT POLARX5TR,LEIAR25.R3,NONE,ROBOT,2020-10-20,2020-10-19,GPS+GLO+GAL+BDS+SBAS,HERS00GBR
HERT00GBR,IGS,Hailsham,United Kingdom,NSGF,50.8674778,0.3343528,83.3,HERT00GBR,LEICA GRX1200GGPRO,LEIAT504GG,NONE,ROBOT,2020-10-20,n/a,GPS+GLO,HERT00GBR
HKSL00HKG,IGS,Tuen Mun,China,HKLD,22.3720047,113.9279813,95.303,HKSL00HKG,LEICA GR50,LEIAR25.R4,LEIT,ROBOT,2020-10-20,2020-10-20,GPS+GLO+GAL+BDS+QZSS,HKSL00HKG
HKWS00HKG,IGS,Wong Shek,China,HKLD,22.4342824,114.3353773,63.789,HKWS00HKG,LEICA GR50,LEIAR25.R4,LEIT,ROBOT,2020-10-20,2020-10-20,GPS+GLO+GAL+BDS,HKWS00HKG
HLFX00CAN,IGS,Halifax,Canada,NRCan,44.68355,-63.6112778,3.1,HLFX00CAN,TPS NET-G3A,TPSCR.G3,NONE,ROBOT,2020-10-20,2020-10-19,GPS+GLO,HLFX00CAN
HNLC00USA,IGS,Honolulu,United States of America,PGF,21.3033,-157.8645,22,HNLC00USA,TRIMBLE NETR9,ASH700936D_M,SNOW,ROBOT,2019-01-25,n/a,GPS,HNLC00USA
HNPT00USA,IGS,Cambridge,United States,NGS,38.5888167,-76.1303722,-28,HNPT00USA,LEICA GRX1200GGPRO,LEIAX1202GG,NONE,ROBOT,2020-08-01,n/a,GPS+GLO,HNPT00USA
HNUS00ZAF,IGS,HERMANUS,South Africa,NGI,-34.4246306,19.2230611,63,HNUS00ZAF,TRIMBLE NETR9,ASH701941.B,SCIS,ROBOT,2020-10-20,n/a,GPS+GLO,HNUS00ZAF
HOB200AUS,IGS,Hobart,Australia,GA,-42.8047194,147.4387333,41.1,HOB200AUS,SEPT POLARX5,AOAD/M_T,NONE,ROBOT,2020-10-01,2020-10-20,GPS+GLO+GAL+BDS+IRNSS+QZSS,HOB200AUS
HOFN00ISL,IGS,Hoefn,Iceland,BKG,64.2672917,-15.197925,82.3,HOFN00ISL,LEICA GR50,LEIAR25.R4,LEIT,ROBOT,2020-10-20,2020-10-19,GPS+GLO+GAL+BDS+IRNSS+SBAS,HOFN00ISL
HOLB00CAN,IGS,Holberg,Canada,GSC,50.6404,-128.135,560,HOLB00CAN,SEPT POLARX5,SEPCHOKE_B3E6,SPKE,ROBOT,2020-10-20,n/a,GPS+GLO+GAL,HOLB00CAN
HOLM00CAN,IGS,"Ulukhaktok, formerly Holman (Victoria Island)",Canada,NRCan/GSD,70.7364,-117.7609,39.5,HOLM00CAN,ASHTECH UZ-12,ASH701945D_M,NONE,ROBOT,2017-12-04,n/a,GPS,HOLM00CAN
HOLP00USA,IGS,Hollydale,United States of America,USGS,33.9245389,-118.1681694,-6.71,HOLP00USA,TPS NET-G3A,TPSCR.G3,SCIS,ROBOT,2019-03-28,n/a,GPS,HOLP00USA
HRAG00ZAF,IGS,Krugersdorp,South Africa,DLR/GSOC,-25.8904022,27.6851802,1407.38,HRAG00ZAF,JAVAD TRE_G3TH DELTA,LEIAR25.R3,LEIT,ROBOT,n/a,2020-10-20,GPS+GLO+GAL+IRNSS+SBAS,HRAG00ZAF
HRAO00ZAF,IGS,Krugersdorp,South Africa,JPL,-25.8901056,27.6869806,1414.3,HRAO00ZAF,JAVAD TRE_G3TH DELTA,ASH701945E_M,NONE,ROBOT,2020-10-20,2020-10-19,GPS+GLO+GAL+BDS,HRAO00ZAF
HUEG00DEU,IGS,Huegelheim,Germany,BKG,47.8339444,7.5961667,278.4,HUEG00DEU,JAVAD TRE_3 DELTA,LEIAR25.R4,LEIT,ROBOT,2020-10-20,2020-10-20,GPS+GLO+GAL+BDS+SBAS,HUEG00DEU
HYDE00IND,IGS,Hyderabad (located in central part of India),India,NGRI,17.4172556,78.5508667,441.68,HYDE00IND,LEICA GRX1200GGPRO,LEIAT504GG,NONE,ROBOT,2020-10-20,n/a,GPS+GLO,HYDE00IND
IENG00ITA,IGS,Torino,Italy,I.N.RI.M.,45.0151333,7.6394056,316.6,IENG00ITA,SEPT POLARX4TR,SEPCHOKE_MC,NONE,ROBOT,2020-10-20,2020-10-19,GPS+GLO+GAL+BDS+SBAS,IENG00ITA
IISC00IND,IGS,Bangalore,India,JPL,13.0211659,77.5703759,843.7145,IISC00IND,SEPT POLARX5,ASH701945E_M,NONE,ROBOT,2020-10-20,2020-10-19,GPS+GLO+GAL+BDS+QZSS+IRNSS,IISC00IND
INEG00MEX,IGS,Aguascalientes,Mexico,INEGI,21.8561528,-102.2842028,1888.347,INEG00MEX,LEICA GR10,LEIAR10,NONE,ROBOT,2020-10-20,2020-04-04,GPS+GLO+GAL,INEG00MEX
INVK00CAN,IGS,Inuvik,Canada,NRCan/GSD,68.3062,-133.527,46.36,INVK00CAN,TRIMBLE NETR9,ASH701945C_M,SCIS,ROBOT,2020-10-20,n/a,GPS,INVK00CAN
IQAL00CAN,IGS,Iqaluit,Canada,NRCan,63.7559639,-68.5104972,91.7,IQAL00CAN,TPS NET-G3A,TPSCR.G3,NONE,ROBOT,2020-10-20,2020-10-19,GPS+GLO,IQAL00CAN
IQQE00CHL,IGS,Iquique,Chile,NSC,-20.2735417,-70.1317167,38.9,IQQE00CHL,TRIMBLE NETR9,ASH700936D_M,SNOW,ROBOT,2020-10-19,n/a,GPS,IQQE00CHL
IRKJ00RUS,IGS,Irkutsk,Russian Federation,VNIIFTRI,52.2190194,104.3161778,502.1,IRKJ00RUS,JPS LEGACY,JPSREGANT_SD_E1,NONE,ROBOT,2020-10-20,n/a,GPS+GLO,IRKJ00RUS
IRKM00RUS,IGS,Irkutsk,Russian Federation,RDAAC,52.2190241,104.3162403,502.317,IRKM00RUS,JAVAD TRE_G3TH DELTA,AOAD/M_T,NONE,ROBOT,2020-10-20,n/a,GPS+GLO,IRKM00RUS
IRKT00RUS,IGS,Irkutsk,Russian Federation,DUT,52.219,104.3162,503.3816,IRKT00RUS,ROGUE SNR-8000,AOAD/M_T,NONE,ROBOT,2014-01-21,n/a,GPS,IRKT00RUS
ISBA00IRQ,IGS,Palestine Street,Iraq,IRAGDS,33.3414139,44.4384028,72.4,ISBA00IRQ,TRIMBLE NETR5,TRM57971.00,NONE,ROBOT,2020-10-06,n/a,GPS+GLO,ISBA00IRQ
ISHI00JPN,IGS,ISHIOKA,Japan,GSI,36.2088333,140.2189556,155.83,ISHI00JPN,TRIMBLE NETR9,TRM59800.00,SCIS,ROBOT,2020-10-20,2020-10-19,GPS+GLO+GAL+QZSS,ISHI00JPN
ISPA00CHL,IGS,Easter Island,Chile,JPL,-27.1249829,-109.34441,112.4948,ISPA00CHL,ASHTECH UZ-12,ASH701945E_M,SCIT,FIELD,2019-01-09,n/a,GPS,ISPA00CHL
ISTA00TUR,IGS,Istanbul,Turkey,BKG,41.1044472,29.0193389,147.2,ISTA00TUR,LEICA GR25,LEIAR25.R4,LEIT,ROBOT,2020-10-20,2020-10-20,GPS+GLO+GAL+BDS+SBAS,ISTA00TUR
IZMI00TUR,IGS,izmir,Turkey,GCM,38.3948083,27.0818222,74.9,IZMI00TUR,TRIMBLE NETR5,TRM55971.00,NONE,ROBOT,2020-10-19,n/a,GPS+GLO+SBAS,IZMI00TUR
JCTW00ZAF,IGS,Cape Town,South Africa,JAXA,-33.9514333,18.46855,83.596,JCTW00ZAF,TRIMBLE NETR9,TRM59800.00,SCIS,ROBOT,n/a,2020-10-20,GPS+GLO+GAL+BDS,JCTW00ZAF
JFNG00CHN,IGS,Jiufeng,China,CNES,30.5155654,114.4910189,71.324,JFNG00CHN,TRIMBLE ALLOY,TRM59800.00,NONE,ROBOT,2020-10-20,2020-10-20,GPS+GLO+GAL+BDS+QZSS+SBAS+IRNSS,JFNG00CHN
JNAV00VNM,IGS,Hanoi,Vietnam,JAXA,21.0045853,105.8439469,34.87,JNAV00VNM,TRIMBLE NETR9,JAVRINGANT_DM,SCIS,ROBOT,n/a,2018-04-10,GPS+GLO+GAL+BDS+QZSS,JNAV00VNM
JOG200IDN,IGS,Yogyakarta,Indonesia,GFZ,-7.7638139,110.3724639,174.4,JOG200IDN,JAVAD TRE_G3TH DELTA,JAV_RINGANT_G3T,NONE,ROBOT,2018-12-16,2020-10-20,GPS+GLO+GAL+QZSS,JOG200IDN
JOZ200POL,IGS,Jozefoslaw,Poland,WUT,52.0978306,21.0323417,152.3,JOZ200POL,TRIMBLE NETR9,TRM59800.00,NONE,ROBOT,2020-10-20,2020-10-20,GPS+GLO+GAL+BDS+QZSS,JOZ200POL
JOZE00POL,IGS,Jozefoslaw,Poland,WUT,52.0972722,21.0315333,141.4,JOZE00POL,SEPT POLARX5,SEPCHOKE_B3E6,NONE,ROBOT,2020-10-20,2020-10-20,GPS+GLO+GAL+BDS+QZSS+IRNSS+SBAS,JOZE00POL
JPLM00USA,IGS,Pasadena,United States of America,JPL,34.2048194,-118.173225,423.9843,JPLM00USA,SEPT POLARX5,AOAD/M_T,NONE,ROBOT,2020-10-20,2020-10-19,GPS+GLO+GAL+BDS,JPLM00USA
JPRE00ZAF,IGS,Pretoria,South Africa,JAXA,-25.732025,28.2826333,1387.327,JPRE00ZAF,TRIMBLE NETR9,TRM59800.00,SCIS,ROBOT,n/a,2020-10-20,GPS+GLO+GAL+BDS,JPRE00ZAF
KARR00AUS,IGS,Karratha,Australia,GA,-20.9814361,117.0971861,109.2,KARR00AUS,TRIMBLE NETR9,TRM59800.00,NONE,ROBOT,2020-10-17,2020-10-19,GPS+GLO+GAL+BDS+QZSS,KARR00AUS
KAT100AUS,IGS,Katherine,Australia,GA,-14.3760083,132.1532694,184.5,KAT100AUS,SEPT POLARX5,LEIAR25.R3,LEIT,ROBOT,2020-10-01,2020-10-20,GPS+GLO+GAL+BDS+IRNSS,KAT100AUS
KERG00ATF,IGS,Port aux Francais,French Southern Territories,CNES,-49.3514669,70.2555239,73.009,KERG00ATF,TRIMBLE NETR9,ASH701945E_M,SNOW,ROBOT,2020-10-20,2020-10-20,GPS+GLO+GAL+BDS+SBAS,KERG00ATF
KGNI00JPN,IGS,KOGANEI,Japan,NICT,35.7103417,139.4881222,123.5,KGNI00JPN,TRIMBLE NETRS,ASH701945C_M,SCIS,ROBOT,2020-10-20,n/a,GPS,KGNI00JPN
KHAR00UKR,IGS,Kharkiv,Ukraine,MAO,50.0051028,36.2390083,201,KHAR00UKR,NOV OEMV3,NOV702GG,NONE,ROBOT,2019-04-30,n/a,GPS+GLO,KHAR00UKR
KIR000SWE,IGS,Kiruna,Sweden,LMV,67.8775722,21.0602333,498,KIR000SWE,SEPT POLARX5,JNSCR_C146-22-1,OSOD,n/a,2020-04-27,2020-10-20,GPS+GLO+GAL+BDS+QZSS+SBAS,KIR000SWE
KIR800SWE,IGS,Kiruna,Sweden,LMV,67.8775417,21.0601778,498,KIR800SWE,TRIMBLE ALLOY,LEIAR25.R3,LEIT,ROBOT,2020-04-27,2020-10-19,GPS+GLO+GAL+BDS+QZSS+SBAS,KIR800SWE
KIRI00KIR,IGS,Betio,Kiribati,GA,1.3545806,172.9228972,36.2,KIRI00KIR,TRIMBLE NETR9,TRM59800.00,NONE,ROBOT,2020-09-29,2020-10-20,GPS+GLO+GAL+BDS+QZSS,KIRI00KIR
KIRU00SWE,IGS,Kiruna,Sweden,ESOC,67.85735,20.9684417,390.9,KIRU00SWE,SEPT POLARX5,SEPCHOKE_B3E6,SPKE,ROBOT,2020-04-05,2020-10-20,GPS+GLO+GAL+BDS+QZSS+SBAS,KIRU00SWE
KIT300UZB,IGS,Kitab,Uzbekistan,GFZ,39.1347667,66.88545,622.6,KIT300UZB,SEPT ASTERX4,SEPCHOKE_B3E6,NONE,ROBOT,2018-12-13,2020-10-20,GPS+GLO+GAL+BDS+QZSS+IRNSS+SBAS,KIT300UZB
KITG00UZB,IGS,Kitab,Uzbekistan,CNES,39.1333864,66.8867382,620.631,KITG00UZB,SEPT POLARX5,TRM59800.00,SCIS,ROBOT,2020-10-20,2020-10-20,GPS+GLO+GAL+BDS+QZSS+SBAS+IRNSS,KITG00UZB
KMNM00TWN,IGS,Kinmen,Taiwan,NLSC,24.4638222,118.3885778,49.1,KMNM00TWN,TRIMBLE ALLOY,TPSCR3_GGD,CONE,ROBOT,2020-10-20,2020-10-20,GPS+GLO+GAL+BDS+QZSS+SBAS,KMNM00TWN
KOKB00USA,IGS,"Kokee Park, Waimea,",United States,JPL,22.1262638,-159.6649298,1167.5216,KOKB00USA,SEPT POLARX5TR,ASH701945G_M,NONE,ROBOT,2020-10-20,2020-10-19,GPS+GLO+GAL+BDS+QZSS,KOKB00USA
KOKV00USA,IGS,"Kokee Park, Waimea,",United States of America,JPL,22.1262638,-159.6649298,1167.5216,KOKV00USA,JAVAD TRE_G3TH DELTA,ASH701945G_M,NONE,ROBOT,2020-10-19,2020-10-19,GPS+GLO+GAL+BDS+QZSS,KOKV00USA
KOS100NLD,IGS,Kootwijk,Netherlands,DUT,52.1733556,5.818225,104.8,KOS100NLD,SEPT POLARX5E,LEIAR25.R3,LEIT,ROBOT,2019-04-28,2020-10-20,GPS+GLO+GAL+BDS+QZSS+IRNSS+SBAS,KOS100NLD
KOST00KAZ,IGS,Kostanay,Kazakhstan,JSC KGS,53.2245583,63.6081028,163.0312,KOST00KAZ,LEICA GR10,LEIAR25.R4,LEIT,ROBOT,2020-10-20,2020-10-20,GPS+GLO+GAL+SBAS,KOST00KAZ
KOUC00NCL,IGS,Koumac,New Caledonia,DITTT,-20.5586972,164.2873333,84.17,KOUC00NCL,TRIMBLE NETR9,TRM57971.00,TZGD,ROBOT,2020-10-18,2020-10-18,GPS+GLO+QZSS+GAL+BDS,KOUC00NCL
KOUG00GUF,IGS,Kourou,French Guiana,CNES,5.0984709,-52.6397502,107.248,KOUG00GUF,SEPT POLARX5TR,LEIAR25.R3,LEIT,ROBOT,2020-10-20,2020-10-20,GPS+GLO+GAL+BDS+SBAS,KOUG00GUF
KOUR00GUF,IGS,Kourou,French Guiana,ESOC,5.2522,-52.806,-25.57,KOUR00GUF,SEPT POLARX5,SEPCHOKE_B3E6,NONE,ROBOT,2020-04-05,2020-10-20,GPS+GLO+GAL+BDS+SBAS,KOUR00GUF
KRGG00ATF,IGS,Port aux Francais,French Southern Territories,CNES,-49.351543,70.2555059,72.9673,KRGG00ATF,TRIMBLE ALLOY,LEIAR25.R4,LEIT,ROBOT,2020-10-20,2020-10-20,GPS+GLO+GAL+BDS+QZSS+SBAS+IRNSS,KRGG00ATF
KRS100TUR,IGS,Kars,Turkey,GCM,40.5884528,43.0934444,1811.7,KRS100TUR,TRIMBLE NETR5,TRM55971.00,TZGD,ROBOT,2020-10-20,n/a,GPS+GLO+SBAS,KRS100TUR
KSMV00JPN,IGS,KASHIMA,Japan,NICT,35.9553722,140.657675,57.9,KSMV00JPN,TRIMBLE NETRS,ASH700936E,SCIS,ROBOT,2019-08-07,n/a,GPS,KSMV00JPN
KUJ200CAN,IGS,Kuujjuarapik,Canada,NRCan,55.2900083,-77.7352722,8.6,KUJ200CAN,SEPT POLARX5,AOAD/M_T_RFI_T,NONE,ROBOT,2020-10-19,2020-10-19,GPS+GLO+GAL,KUJ200CAN
KZN200RUS,IGS,KAZAN,Russian Federation,KFU,55.7907833,49.1192444,94.6,KZN200RUS,TRIMBLE ALLOY,TRM59800.00,SCIS,ROBOT,n/a,2020-03-18,GPS+GLO+GAL+BDS+QZSS+SBAS+IRNSS,KZN200RUS
LAE100PNG,IGS,Lae,Papua New Guinea,DSLS,-6.6737,146.9932,140.35,LAE100PNG,ASHTECH UZ-12,ASH700936A_M,NONE,COPIED,2020-09-27,n/a,GPS,LAE100PNG
LAMA00POL,IGS,Olsztyn,Poland,UWM_OLSZTYN,53.8924,20.6699333,186.7,LAMA00POL,LEICA GRX1200+GNSS,LEIAT504GG,LEIS,ROBOT,2020-10-20,n/a,GPS+GLO,LAMA00POL
LAUT00FJI,IGS,Lautoka,Fiji,GA,-17.6088056,177.4465833,89.7,LAUT00FJI,SEPT POLARX5,JAVRINGANT_DM,NONE,ROBOT,2020-10-01,2020-10-20,GPS+GLO+GAL+BDS+QZSS,LAUT00FJI
LBCH00USA,IGS,Long Beach,United States of America,USGS,33.7877694,-118.2033444,-27.58,LBCH00USA,SEPT POLARX5,TWIVC6150,SCIS,ROBOT,2020-10-20,n/a,GPS+GLO+GAL+SBAS,LBCH00USA
LCK300IND,IGS,Lucknow,India,ISRO,26.9121793,80.9556358,64.165,LCK300IND,TRIMBLE ALLOY,LEIAR25.R3,LEIT,ROBOT,2020-04-26,2020-10-20,GPS+GLO+GAL+BDS+QZSS+SBAS+IRNSS,LCK300IND
LCK400IND,IGS,Lucknow,India,ISRO,26.9121426,80.9556167,64.1821,LCK400IND,TRIMBLE ALLOY,LEIAR25.R3,LEIT,ROBOT,2020-07-13,2020-10-20,GPS+GLO+GAL+BDS+QZSS+SBAS+IRNSS,LCK400IND
LEIJ00DEU,IGS,Leipzig,Germany,BKG,51.3539806,12.3740972,178.4,LEIJ00DEU,JAVAD TRE_3 DELTA,LEIAR25.R4,LEIT,ROBOT,2020-10-20,2020-10-20,GPS+GLO+GAL+BDS+SBAS,LEIJ00DEU
LHAZ00CHN,IGS,Lhasa,China,BKG,29.6573306,91.1040222,3622,LHAZ00CHN,LEICA GR25,LEIAR25.R4,LEIT,ROBOT,2020-05-03,2020-10-20,GPS+GLO+GAL+BDS+SBAS,LHAZ00CHN
LICC00GBR,IGS,London,United Kingdom,IC,51.4997889,-0.1748389,88.7,LICC00GBR,CHC P5E,CHCC220GR2,CHCD,ROBOT,n/a,2020-10-20,GPS+GLO+GAL+BDS+SBAS,LICC00GBR
LLAG00ESP,IGS,La Laguna,Spain,DLR/GSOC,28.4816661,-16.3207178,622.82,LLAG00ESP,JAVAD TRE_G2T DELTA,TRM57971.00,NONE,ROBOT,n/a,2020-06-28,GPS+GAL+SBAS,LLAG00ESP
LMMF00MTQ,IGS,Le Lamentin,Martinique,IGN,14.5948167,-60.9961694,-27,LMMF00MTQ,TRIMBLE ALLOY,TRM57971.00,NONE,ROBOT,2020-10-20,2020-10-20,GPS+GLO+GAL+BDS+SBAS,LMMF00MTQ
LPAL00ESP,IGS,Roque de los Muchachos,Spain,IGN-E,28.7639583,-17.8938389,2207,LPAL00ESP,LEICA GRX1200GGPRO,LEIAT504GG,NONE,ROBOT,2020-10-20,n/a,GPS+GLO,LPAL00ESP
LPGS00ARG,IGS,La Plata,Argentina,GFZ,-34.9067444,-57.9323,29.9,LPGS00ARG,JAVAD TRE_3,JAVRINGANT_G5T,NONE,ROBOT,2019-01-27,2020-10-20,GPS+GLO+GAL+BDS,LPGS00ARG
LROC00FRA,IGS,La Rochelle,France,ULR,46.1589389,-1.2193194,57.9,LROC00FRA,LEICA GR25,ASH701945B_M,NONE,COPIED,2020-10-20,2020-09-17,GPS+GLO+GAL+SBAS,LROC00FRA
M0SE00ITA,IGS,Roma,Italy,AGG_DITS,41.8931139,12.4932583,120.6,M0SE00ITA,LEICA GR25,LEIAR25.R4,LEIT,ROBOT,2020-04-27,2020-10-20,GPS+GLO+GAL+BDS+SBAS,M0SE00ITA
MAC100AUS,IGS,Macquarie Island,Australia,GA,-54.4995,158.9358,-6.7,MAC100AUS,SEPT POLARX5,JAVRINGANT_DM,SCIS,ROBOT,2020-09-30,2020-10-20,GPS+GLO+GAL+BDS+QZSS+IRNSS,MAC100AUS
MAD200ESP,IGS,Robledo,Spain,JPL,40.4291611,-4.2496583,829.5,MAD200ESP,ASHTECH Z-XII3T,AOAD/M_T,NONE,ROBOT,2020-10-20,n/a,GPS,MAD200ESP
MADR00ESP,IGS,Robledo,Spain,JPL,40.4291611,-4.2496583,829.5,MADR00ESP,JAVAD TRE_G3TH DELTA,AOAD/M_T,NONE,ROBOT,2020-10-20,2020-10-19,GPS+GLO+GAL+BDS,MADR00ESP
MAG000RUS,IGS,Magadan,Russian Federation,RDAAC,59.5758,150.77,361.9266,MAG000RUS,ASHTECH Z-XII3,ASH700936D_M,JPLA,n/a,2020-10-20,n/a,GPS,MAG000RUS
MAJU00MHL,IGS,"Rita, Majuro",Marshall Islands,GA,7.1191369,171.364525,33.9,MAJU00MHL,SEPT POLARX4TR,JAVRINGANT_DM,NONE,ROBOT,2020-10-17,2020-10-19,GPS+GLO+GAL+BDS+QZSS,MAJU00MHL
MAL200KEN,IGS,Malindi,Kenya,ESOC,-2.996,40.194,-20.4,MAL200KEN,SEPT POLARX5,LEIAR25.R4,NONE,ROBOT,2020-04-05,2020-10-20,GPS+GLO+GAL+BDS+SBAS,MAL200KEN
MANA00NIC,IGS,Managua,Nicaragua,INETER,12.1489389,-86.2489944,71,MANA00NIC,TRIMBLE NETR9,TRM59800.99,NONE,ROBOT,2020-10-20,n/a,GPS,MANA00NIC
MAR600SWE,IGS,Maartsbo,Sweden,LMV,60.5951417,17.2585222,75.4,MAR600SWE,SEPT POLARX5,AOAD/M_T,OSOD,n/a,2020-04-27,2020-10-20,GPS+GLO+GAL+BDS+IRNSS+SBAS,MAR600SWE
MAR700SWE,IGS,Gavle,Sweden,LMV,60.5950528,17.2584389,74.3,MAR700SWE,TRIMBLE ALLOY,LEIAR25.R3,LEIT,ROBOT,2020-04-27,2020-10-19,GPS+GLO+GAL+BDS+SBAS,MAR700SWE
MARS00FRA,IGS,Marseille,France,IGN,43.2787694,5.3537833,61.7,MARS00FRA,LEICA GR25,TRM57971.00,NONE,ROBOT,2020-10-20,2020-10-20,GPS+GLO+GAL+BDS+SBAS,MARS00FRA
MAS100ESP,IGS,Maspalomas,Spain,ESOC,27.7637389,-15.6332778,197.2,MAS100ESP,SEPT POLARX5,LEIAR25.R4,NONE,ROBOT,2020-04-05,2020-10-20,GPS+GLO+GAL+BDS+SBAS,MAS100ESP
MAT100ITA,IGS,MATERA,Italy,ASI,40.6490611,16.7045444,534.5,MAT100ITA,LEICA GR30,LEIAR20,NONE,ROBOT,2020-08-03,2020-10-20,GPS+GLO+GAL+BDS+SBAS,MAT100ITA
MATE00ITA,IGS,Matera,Italy,ASI,40.6491306,16.7044583,535.6,MATE00ITA,LEICA GR30,LEIAR20,NONE,ROBOT,2020-08-03,2020-10-20,GPS+GLO+GAL+BDS+SBAS,MATE00ITA
MATG00ITA,IGS,Matera,Italy,ASI,40.6490278,16.7046528,537,MATG00ITA,LEICA GR10,LEIAR25,NONE,ROBOT,2020-08-03,2020-10-20,GPS+GLO+GAL+BDS+SBAS,MATG00ITA
MAUI00USA,IGS,"Haleakala, Maui",United States,PGF,20.7067,-156.257,3062,MAUI00USA,TRIMBLE NETRS,ASH700936D_M,SNOW,ROBOT,2020-10-19,n/a,GPS,MAUI00USA
MAW100ATA,IGS,Mawson,Antarctica,GA,-67.6048,62.8707,59.2,MAW100ATA,SEPT POLARX5,AOAD/M_T,AUST,n/a,2020-10-01,2020-10-20,GPS+GLO+GAL+BDS+QZSS+IRNSS,MAW100ATA
MAYG00MYT,IGS,Dzaoudzi,Mayotte,CNES,-12.7820532,45.2581519,-16.35,MAYG00MYT,TRIMBLE ALLOY,TRM59800.00,NONE,ROBOT,2020-10-20,2020-10-20,GPS+GLO+GAL+BDS+SBAS+IRNSS,MAYG00MYT
MBAR00UGA,IGS,Mbarara,Uganda,JPL,-0.6014691,30.7378762,1337.6533,MBAR00UGA,JAVAD TRE_3 DELTA,ASH701945B_M,SCIS,COPIED,2020-10-16,2020-10-16,GPS+GLO+GAL+BDS+IRNSS,MBAR00UGA
MCHL00AUS,IGS,Mitchell,Australia,GA,-26.3589056,148.1449611,534.6,MCHL00AUS,TRIMBLE ALLOY,TRM59800.00,NONE,ROBOT,2020-09-29,2020-10-20,GPS+GLO+GAL+BDS+QZSS,MCHL00AUS
MCIL00JPN,IGS,Ogasawara,Japan,GSI,24.2900944,153.9786611,35.66,MCIL00JPN,TRIMBLE NETR9,TRM59800.80,SCIS,COPIED,2020-08-04,2020-08-04,GPS+GLO+GAL+QZSS,MCIL00JPN
MCM400ATA,IGS,Ross Island,Antarctica,JPL,-77.8383495,166.6693293,98.0222,MCM400ATA,JAVAD TRE_G3TH DELTA,AOAD/M_T,JPLA,n/a,2020-10-20,2020-10-19,GPS+GLO+GAL+BDS+QZSS,MCM400ATA
MDO100USA,IGS,Fort Davis,United States of America,JPL,30.6805111,-104.0149933,2004.4761,MDO100USA,SEPT POLARX5,JAVRINGANT_DM,SCIS,ROBOT,2020-10-20,2020-10-19,GPS+GLO+GAL+BDS,MDO100USA
MDVJ00RUS,IGS,Mendeleevo,Russian Federation,VNIIFTRI,56.0214917,37.2145028,257.4,MDVJ00RUS,TPS NETG3,JPSREGANT_DD_E1,NONE,ROBOT,2020-10-20,n/a,GPS+GLO,MDVJ00RUS
MEDI00ITA,IGS,Medicina,Italy,ASI,44.5199556,11.6468139,50,MEDI00ITA,LEICA GR10,LEIAR20,LEIM,ROBOT,2020-08-03,2020-10-20,GPS+GLO+GAL+BDS+SBAS,MEDI00ITA
MELI00ESP,IGS,Melilla,Spain,IGN-E,35.2812194,-2.9516417,93.5,MELI00ESP,LEICA GR10,LEIAR25.R4,LEIT,ROBOT,2020-10-20,2020-10-20,GPS+GLO+GAL,MELI00ESP
MERS00TUR,IGS,Erdemli,Turkey,GCM,36.5663889,34.2558528,38.5,MERS00TUR,LEICA GR50,LEIAR10,NONE,ROBOT,2020-10-11,2020-10-20,GPS+GLO+GAL+BDS+QZSS+SBAS,MERS00TUR
MET300FIN,IGS,Kirkkonummi,Finland,FGI,60.2174556,24.3945,79.2,MET300FIN,JAVAD TRE_3 DELTA,JAVRINGANT_DM,SCIS,ROBOT,2020-08-18,2020-10-20,GPS+GLO+GAL+BDS+SBAS,MET300FIN
METG00FIN,IGS,METSAHOVI,Finland,FGI,60.2419667,24.384175,59.7,METG00FIN,SEPT POLARX5,TRM59800.00,SCIS,ROBOT,2020-10-19,2020-10-19,GPS+GLO+GAL+BDS+SBAS+IRNSS,METG00FIN
METS00FIN,IGS,Kirkkonummi,Finland,FGI,60.2174694,24.3953167,94.6,METS00FIN,JAVAD TRE_3 DELTA,ASH700936C_M,NONE,ROBOT,2020-08-18,n/a,GPS,METS00FIN
MFKG00ZAF,IGS,MAFIKENG,South Africa,NGI,-25.8050139,25.5399694,1310.9,MFKG00ZAF,TRIMBLE NETRS,ASH701941.B,SCIS,ROBOT,2020-10-20,n/a,GPS,MFKG00ZAF
MGUE00ARG,IGS,Malargue,Argentina,ESOC,-35.77735,-69.3979278,1554.15,MGUE00ARG,SEPT POLARX5TR,LEIAR25.R4,NONE,ROBOT,2020-04-05,2020-10-20,GPS+GLO+GAL+BDS+SBAS,MGUE00ARG
MIKL00UKR,IGS,Mykolaiv,Ukraine,MAO,46.9727889,31.9728278,94.7,MIKL00UKR,LEICA GR10,LEIAR10,NONE,ROBOT,2020-10-20,2020-10-20,GPS+GLO+GAL,MIKL00UKR
MIZU00JPN,IGS,Mizusawa,Japan,GFZ,39.1351694,141.1328278,117,MIZU00JPN,SEPT ASTERX4,SEPCHOKE_B3E6,NONE,ROBOT,2018-12-16,2020-10-20,GPS+GLO+GAL+BDS+QZSS+IRNSS+SBAS,MIZU00JPN
MKEA00USA,IGS,Mauna Kea,United States,JPL,19.8013566,-155.4563453,3754.7,MKEA00USA,SEPT POLARX5,JAVRINGANT_DM,SCIS,ROBOT,2020-10-20,2020-10-19,GPS+GLO+GAL+BDS+QZSS,MKEA00USA
MOBJ00RUS,IGS,Obninsk,Russian Federation,RDAAC,55.114882,36.5697129,182.6079,MOBJ00RUS,JPS LEGACY,JPSREGANT_SD_E1,NONE,ROBOT,2020-10-20,n/a,GPS+GLO,MOBJ00RUS
MOBK00RUS,IGS,Obninsk,Russian Federation,JPL,55.114882,36.5697129,182.6079,MOBK00RUS,JPS EGGDT,JPSREGANT_SD_E1,NONE,ROBOT,2020-10-20,n/a,GPS+GLO,MOBK00RUS
MOBN00RUS,IGS,Obninsk,Russian Federation,RDAAC,55.1148806,36.5695194,182.634,MOBN00RUS,ASHTECH UZ-12,ASH701945C_M,SCIS,ROBOT,2020-10-20,n/a,GPS,MOBN00RUS
MOBS00AUS,IGS,Melbourne,Australia,GA,-37.8294054,144.9753402,40.578,MOBS00AUS,SEPT POLARX4TR,ASH701945C_M,NONE,ROBOT,2020-10-17,2020-10-05,GPS+GLO+GAL+BDS+QZSS,MOBS00AUS
MOIU00KEN,IGS,Eldoret,Kenya,JPL,0.2883204,35.2900102,2201.5321,MOIU00KEN,JAVAD TRE_3 DELTA,ASH701945E_M,NONE,ROBOT,2020-01-06,2020-01-06,GPS+GLO+GAL+BDS,MOIU00KEN
MONP00USA,IGS,Laguna Mountains,United States,SIO,32.89,-116.42,1842.55,MONP00USA,TPS NET-G3A,ASH701945B_M,SCIS,COPIED,2020-10-20,n/a,GPS,MONP00USA
MORP00GBR,IGS,Morpeth,United Kingdom,NCL,55.2127889,-1.6854972,144.5,MORP00GBR,TRIMBLE NETR8,AOAD/M_T,NONE,ROBOT,2020-10-01,n/a,GPS,MORP00GBR
MQZG00NZL,IGS,Christchurch,New Zealand,GNS,-43.7027361,172.654705,154.68,MQZG00NZL,TRIMBLE ALLOY,TRM115000.00,NONE,ROBOT,2020-10-20,2019-01-22,GPS+GLO+GAL+BDS+QZSS,MQZG00NZL
MRC100USA,IGS,Stafford,United States of America,NRL,38.4990996,-77.3706496,27.2003,MRC100USA,SEPT POLARX5,SEPCHOKE_B3E6,SPKE,ROBOT,2020-10-19,2020-10-19,GPS+GLO+GAL+BDS,MRC100USA
MRL100NZL,IGS,Marlbourough,New Zealand,NGA,-41.5761944,173.7407528,147.2,MRL100NZL,ITT 3750300,TPSCR.G5,TPSH,ROBOT,2020-10-18,n/a,GPS,MRL100NZL
MRL200NZL,IGS,Marlbourough,New Zealand,NGA,-41.5761944,173.7407528,147.2,MRL200NZL,ITT 3750300,TPSCR.G5,TPSH,ROBOT,2020-10-18,n/a,GPS,MRL200NZL
MRO100AUS,IGS,Boolardy Station,Australia,GA,-26.6966389,116.6374917,354.1,MRO100AUS,TRIMBLE NETR9,TRM59800.00,NONE,ROBOT,2020-09-29,2020-10-20,GPS+QZSS+GLO+GAL+BDS,MRO100AUS
MTKA00JPN,IGS,Mitaka,Japan,ENRI,35.6795139,139.5613861,109,MTKA00JPN,TRIMBLE NETR9,ASH701073.1,SNOW,ROBOT,2020-10-20,n/a,GPS+GLO,MTKA00JPN
MTV100URY,IGS,Montevideo,Uruguay,NGA,-34.9135917,-56.1763,40.7,MTV100URY,ITT 3750300,TPSCR.G5,TPSH,ROBOT,2020-10-18,n/a,GPS,MTV100URY
MTV200URY,IGS,Montevideo,Uruguay,NGA,-34.9135917,-56.1763,40.7,MTV200URY,ITT 3750300,TPSCR.G5,TPSH,ROBOT,2020-10-18,n/a,GPS,MTV200URY
NAIN00CAN,IGS,Nain,Canada,NRCan/GSD,56.5369639,-61.6887167,33.48,NAIN00CAN,ASHTECH UZ-12,ASH701945D_M,NONE,ROBOT,2019-06-26,n/a,GPS,NAIN00CAN
NANO00CAN,IGS,Nanoose Bay,Canada,GSC,49.2948,-124.0865,6,NANO00CAN,SEPT POLARX5,SEPCHOKE_B3E6,SPKE,ROBOT,2020-10-20,n/a,GPS+GLO+GAL,NANO00CAN
NAUR00NRU,IGS,"Nauru, Yaren District",Nauru,GA,-0.5518397,166.92555,46.3,NAUR00NRU,SEPT POLARX4TR,LEIAR25.R3,LEIT,ROBOT,2020-01-19,2020-01-17,GPS+GLO+GAL+BDS+QZSS,NAUR00NRU
NCKU00TWN,IGS,Tainan,Taiwan,JAXA,22.9966583,120.2225833,98.217,NCKU00TWN,TRIMBLE NETR9,JAVRINGANT_DM,SCIS,ROBOT,n/a,2020-10-14,GPS+GLO+GAL+BDS+QZSS,NCKU00TWN
NICO00CYP,IGS,Nicosia,Cyprus,BKG,35.1409806,33.3964333,191.7,NICO00CYP,LEICA GR50,LEIAR25.R4,LEIT,ROBOT,2020-10-20,2020-10-20,GPS+GLO+GAL+BDS+SBAS,NICO00CYP
NIST00USA,IGS,Boulder,United States,NIST,39.9950667,-105.2626056,1648.488,NIST00USA,NOV OEM4-G2,NOV702,NONE,ROBOT,2020-10-19,n/a,GPS,NIST00USA
NIUM00NIU,IGS,Alofi,Niue,GA,-19.0765667,-169.9270667,90.1,NIUM00NIU,TRIMBLE NETR9,TRM59800.00,NONE,ROBOT,2020-09-30,2020-10-19,GPS+QZSS+GLO+GAL+BDS,NIUM00NIU
NKLG00GAB,IGS,Libreville,Gabon,CNES,0.3539077,9.6721263,31.496,NKLG00GAB,SEPT POLARX5,TRM59800.00,SCIS,ROBOT,2020-10-19,2020-10-19,GPS+GLO+GAL+BDS+SBAS+IRNSS,NKLG00GAB
NLIB00USA,IGS,North Liberty,United States,JPL,41.7715917,-91.5748917,207.0648,NLIB00USA,SEPT POLARX5TR,JAVRINGANT_DM,SCIS,ROBOT,2020-10-20,2020-10-19,GPS+GLO+GAL+BDS,NLIB00USA
NNOR00AUS,IGS,New Norcia,Australia,ESOC,-31.0487389,116.1927139,234.984,NNOR00AUS,SEPT POLARX5TR,SEPCHOKE_B3E6,NONE,ROBOT,2020-04-05,2020-10-20,GPS+GLO+GAL+BDS+QZSS+SBAS+IRNSS,NNOR00AUS
NOT100ITA,IGS,Noto,Italy,ASI,36.8761083,14.9898083,126.2,NOT100ITA,LEICA GR30,LEIAR20,NONE,ROBOT,2020-08-03,2020-10-20,GPS+GLO+GAL+BDS+SBAS,NOT100ITA
NOVM00RUS,IGS,Novosibirsk,Russian Federation,VNIIFTRI,55.0305,82.9094889,149.98,NOVM00RUS,JPS LEGACY,JPSREGANT_SD_E1,NONE,ROBOT,2020-10-20,n/a,GPS+GLO,NOVM00RUS
NRC100CAN,IGS,Ottawa,Canada,NRCan,45.4542,-75.6238,82.5,NRC100CAN,JAVAD TRE_G3TH DELTA,AOAD/M_T,NONE,ROBOT,2020-10-20,2020-10-19,GPS+GLO+GAL,NRC100CAN
NRIL00RUS,IGS,Norilsk,Russian Federation,RDAAC,69.3618333,88.3597778,47.8937,NRIL00RUS,ASHTECH UZ-12,ASH701945B_M,SCIT,FIELD,2020-10-20,n/a,GPS,NRIL00RUS
NRMD00NCL,IGS,NOUMEA,New Caledonia,DITTT,-22.2283306,166.4848833,160.384,NRMD00NCL,TRIMBLE NETR9,TRM57971.00,TZGD,ROBOT,2020-10-18,2020-10-18,GPS+GLO+QZSS+GAL+BDS,NRMD00NCL
NTUS00SGP,IGS,Singapore,Singapore,DUT,1.3458,103.6799,79,NTUS00SGP,LEICA GR50,LEIAR20,LEIM,ROBOT,2020-04-06,2020-10-20,GPS+GLO+GAL+BDS+QZSS,NTUS00SGP
NVSK00RUS,IGS,Novosibirsk,Russian Federation,IPGG SB RAS,54.8406,83.2355,123.6429,NVSK00RUS,TRIMBLE R7 GNSS,TRM57971.00,NONE,ROBOT,2020-10-18,n/a,GPS+GLO,NVSK00RUS
NYA100NOR,IGS,Ny-Alesund,Norway,NMA,78.9295528,11.8652944,83.7,NYA100NOR,TRIMBLE NETR8,ASH701073.1,SNOW,ROBOT,2020-10-20,2020-10-19,GPS+GLO,NYA100NOR
NYA200NOR,IGS,Ny Alesund,Norway,GFZ,78.9303333,11.8586389,81.5,NYA200NOR,SEPT POLARX5,JAVRINGANT_G5T,NONE,ROBOT,2019-04-28,2020-10-20,GPS+GLO+GAL+BDS+QZSS+IRNSS+SBAS,NYA200NOR
NYAL00NOR,IGS,Ny-Alesund,Norway,NMA,78.9295806,11.8650944,79,NYAL00NOR,TRIMBLE NETR9,AOAD/M_B,DOME,n/a,2020-10-20,2020-10-19,GPS+GLO+GAL+BDS+QZSS,NYAL00NOR
OAK100GBR,IGS,Hermitage,United Kingdom,NGA,51.1176111,-0.905125,139.6,OAK100GBR,ITT 3750300,TPSCR.G5,TPSH,ROBOT,2020-10-18,n/a,GPS,OAK100GBR
OAK200GBR,IGS,Hermitage,United Kingdom,NGA,51.1176111,-0.905125,139.6,OAK200GBR,ITT 3750300,TPSCR.G5,TPSH,ROBOT,2020-10-18,n/a,GPS,OAK200GBR
OBE400DEU,IGS,Oberpfaffenhofen,Germany,GFZ,48.0848056,11.2778556,650.5,OBE400DEU,JAVAD TRE_G3TH DELTA,JAV_RINGANT_G3T,NONE,ROBOT,2019-04-09,2020-10-20,GPS+GLO+GAL,OBE400DEU
OHI200ATA,IGS,O'Higgins,Antarctica,BKG,-63.3211,-57.9013,33.1,OHI200ATA,JAVAD TRE_G3TH DELTA,LEIAR25.R4,LEIT,ROBOT,2020-10-20,2020-10-20,GPS+GLO+GAL+SBAS,OHI200ATA
OHI300ATA,IGS,O'Higgins,Antarctica,BKG,-63.3210947,-57.9013853,32.15,OHI300ATA,LEICA GR50,LEIAR25.R4,LEIT,ROBOT,2020-10-20,2020-10-20,GPS+GLO+GAL+BDS+SBAS+IRNSS,OHI300ATA
ONS100SWE,IGS,Onsala,Sweden,LMV,57.3953306,11.9245361,44.4,ONS100SWE,TRIMBLE NETR9,LEIAR25.R3,LEIT,ROBOT,2020-04-27,2020-10-19,GPS+GLO+GAL+BDS+SBAS,ONS100SWE
ONSA00SWE,IGS,Onsala,Sweden,LMV,57.3952972,11.9255139,45.5,ONSA00SWE,SEPT POLARX5TR,AOAD/M_B,OSOD,n/a,2020-04-27,2020-10-20,GPS+GLO+GAL+BDS+SBAS,ONSA00SWE
OP7100FRA,IGS,Paris,France,OP,48.8359059,2.3349749,124.553,OP7100FRA,SEPT POLARX4TR,LEIAR25.R4,LEIT,ROBOT,2020-10-20,2020-10-18,GPS+GLO+GAL+BDS+SBAS,OP7100FRA
OPMT00FRA,IGS,Paris,France,OP,48.8358806,2.3348833,124.2,OPMT00FRA,ASHTECH Z-XII3T,3S-02-TSADM,NONE,CONVERTED,2020-10-20,n/a,GPS,OPMT00FRA
ORID00MKD,IGS,Ohrid,Macedonia,BKG,41.1273111,20.7940472,773,ORID00MKD,LEICA GR30,LEIAR25.R4,LEIT,ROBOT,2020-10-20,2020-10-20,GPS+GLO+GAL+BDS+SBAS,ORID00MKD
OSN300KOR,IGS,Osan,South Korea,NGA,37.0826917,127.0336083,64.4,OSN300KOR,ITT 3750300,TPSCR.G5,TPSH,ROBOT,2020-10-18,n/a,GPS,OSN300KOR
OSN400KOR,IGS,Osan,South Korea,NGA,37.0826917,127.0336083,64.4,OSN400KOR,ITT 3750300,TPSCR.G5,TPSH,ROBOT,2020-10-18,n/a,GPS,OSN400KOR
OUS200NZL,IGS,Dunedin,New Zealand,GFZ,-45.869475,170.5109333,26.1,OUS200NZL,SEPT ASTERX4,SEPCHOKE_B3E6,NONE,ROBOT,2018-12-16,2020-10-20,GPS+GLO+GAL+BDS+QZSS+IRNSS+SBAS,OUS200NZL
OWMG00NZL,IGS,Owenga,New Zealand,CNES,-44.0242952,-176.3688031,21.603,OWMG00NZL,TRIMBLE NETR9,TRM59800.00,NONE,ROBOT,2020-10-20,2020-10-20,GPS+GLO+GAL+BDS+QZSS+SBAS,OWMG00NZL
PADO00ITA,IGS,Padova,Italy,UNIPD,45.41115,11.8960556,64.7,PADO00ITA,SEPT POLARX5,SEPCHOKE_B3E6,SPKE,ROBOT,2020-04-08,2020-10-19,GPS+GLO+GAL+BDS+IRNSS+SBAS,PADO00ITA
PALM00ATA,IGS,Palmer Station,Antarctica,JPL,-64.7750898,-64.0511218,31.2394,PALM00ATA,JAVAD TRE_G3TH DELTA,ASH700936D_M,SCIS,ROBOT,2020-10-20,2020-10-19,GPS+GLO+GAL+BDS+QZSS,PALM00ATA
PARC00CHL,IGS,Punta Arenas,Chile,NSC,-53.137,-70.8799,22.3,PARC00CHL,TRIMBLE ALLOY,TRM57971.00,NONE,ROBOT,2020-10-19,2020-10-19,GPS+GLO+GAL+BDS,PARC00CHL
PARK00AUS,IGS,Parkes,Australia,GA,-32.9987611,148.2646139,397.4,PARK00AUS,TRIMBLE NETR9,ASH701945C_M,NONE,ROBOT,2020-10-17,2020-10-19,BDS+GAL+GLO+GPS+QZSS,PARK00AUS
PBRI00IND,IGS,Port Blair,India,ISRO,11.6377796,92.7121363,-22.554,PBRI00IND,TRIMBLE ALLOY,LEIAR25.R3,LEIT,ROBOT,2020-04-24,2020-10-15,GPS+GLO+GAL+BDS+QZSS+SBAS+IRNSS,PBRI00IND
PDEL00PRT,IGS,Ponta Delgada,Portugal,DGT,37.7477472,-25.6627667,110.8,PDEL00PRT,LEICA GRX1200GGPRO,LEIAT504GG,NONE,ROBOT,2020-07-12,n/a,GPS+GLO,PDEL00PRT
PEN200HUN,IGS,Penc,Hungary,FÃ–MI SGO,47.789725,19.2816667,294,PEN200HUN,LEICA GRX1200+GNSS,LEIAR25.R4,LEIT,ROBOT,2019-07-09,2018-06-06,GPS+GLO+GAL,PEN200HUN
PENC00HUN,IGS,Penc,Hungary,FÃ–MI SGO,47.7896,19.2815222,291.7,PENC00HUN,LEICA GRX1200GGPRO,LEIAT504GG,LEIS,ROBOT,2020-10-20,n/a,GPS+GLO,PENC00HUN
PERT00AUS,IGS,Perth,Australia,GA,-31.8019,115.8852,12.9,PERT00AUS,TRIMBLE NETR9,TRM59800.00,NONE,ROBOT,2020-09-30,2020-10-20,GPS+GLO+GAL+BDS+QZSS,PERT00AUS
PETS00RUS,IGS,Petropavlovsk-Kamchatka,Russian Federation,RDAAC,53.0233,158.6501361,102.2,PETS00RUS,JAVAD TRE_G3TH DELTA,ASH701933B_M,SCIS,n/a,2020-10-20,n/a,GPS+GLO,PETS00RUS
PGEN00PHL,IGS,General Santos City,Philippines,NAMRIA,6.0649125,125.1316621,121.124,PGEN00PHL,LEICA GR50,LEIAR25,LEIT,ROBOT,2020-06-08,2019-01-06,GPS+GLO+GAL+BDS+QZSS+SBAS,PGEN00PHL
PICL00CAN,IGS,Pickle Lake,Canada,NRCan,51.4798083,-90.161975,315.1,PICL00CAN,SEPT POLARX5,TWIVC6150,NONE,ROBOT,2020-10-20,2020-10-19,GPS+GLO+GAL,PICL00CAN
PIE100USA,IGS,Pie Town,United States of America,JPL,34.3015058,-108.1189274,2347.7109,PIE100USA,SEPT POLARX5,ASH701945E_M,NONE,ROBOT,2020-10-20,2020-10-19,GPS+GLO+GAL+BDS,PIE100USA
PIMO00PHL,IGS,Quezon City,Philippines,JPL,14.6357194,121.0777306,95.532,PIMO00PHL,JAVAD TRE_G3TH DELTA,ASH701945C_M,NONE,ROBOT,2020-10-20,2020-10-19,GPS+GLO+GAL+BDS+QZSS,PIMO00PHL
PIN100USA,IGS,Pinyon Flat,United States,SIO,33.61,-116.46,1256.17,PIN100USA,TPS NET-G3A,ASH701945B_M,SCIS,COPIED,2020-10-20,n/a,GPS,PIN100USA
PNGM00PNG,IGS,Lombrum,Papua New Guinea,GA,-2.0432222,147.366,116.3,PNGM00PNG,TRIMBLE NETR9,TRM59800.00,NONE,ROBOT,2020-09-30,2020-10-20,GPS+GLO+GAL+BDS+QZSS,PNGM00PNG
POAL00BRA,IGS,Porto Alegre,Brazil,IBGE,-30.0740417,-51.1197639,76.75,POAL00BRA,TRIMBLE NETR9,TRM115000.00,NONE,ROBOT,2020-10-19,2020-10-19,GPS+GLO+GAL+BDS,POAL00BRA
POHN00FSM,IGS,Pohnpei,"Micronesia, Federated States of",GA,6.9599444,158.2101167,90.7,POHN00FSM,SEPT POLARX5,JAVRINGANT_DM,NONE,ROBOT,2020-03-30,2020-03-29,GPS+GLO+GAL+BDS+QZSS+IRNSS,POHN00FSM
POL200KGZ,IGS,Bishkek,Kyrgyzstan,JPL,42.6798,74.6943,1714.2,POL200KGZ,JAVAD TRE_3 DELTA,TPSCR.G3,NONE,ROBOT,2020-10-20,2020-10-19,GPS+GLO+GAL+BDS+QZSS,POL200KGZ
POLV00UKR,IGS,Poltava,Ukraine,MAO,49.6026139,34.5429278,178.1,POLV00UKR,LEICA GR10,LEIAR10,NONE,ROBOT,2020-10-20,2020-10-20,GPS+GLO+GAL,POLV00UKR
POTS00DEU,IGS,Potsdam,Germany,GFZ,52.3792972,13.0660917,144.4,POTS00DEU,JAVAD TRE_3,JAVRINGANT_G5T,NONE,ROBOT,2020-01-08,2020-10-20,GPS+GLO+GAL+BDS+QZSS+IRNSS+SBAS,POTS00DEU
POVE00BRA,IGS,Porto Velho,Brazil,IBGE,-8.7093361,-63.8963194,119.6,POVE00BRA,TRIMBLE NETR9,TRM115000.00,NONE,ROBOT,2020-10-19,2020-10-19,GPS+GLO+GAL+BDS,POVE00BRA
PPPC00PHL,IGS,Puerto Princesa City,Philippines,NAMRIA,9.7729325,118.7402337,66.543,PPPC00PHL,LEICA GR50,LEIAR25,LEIT,ROBOT,2020-05-24,2018-11-28,GPS+GLO+GAL+BDS+QZSS+SBAS,PPPC00PHL
PRDS00CAN,IGS,Calgary,Canada,NRCan,50.8713,-114.2935,1247.9,PRDS00CAN,JAVAD TRE_3N DELTA,AOAD/M_T,NONE,ROBOT,2020-10-20,2020-10-19,GPS+GLO+GAL,PRDS00CAN
PRE300ZAF,IGS,Pretoria,South Africa,NGA,-25.7464944,28.2240444,1413.8,PRE300ZAF,ITT 3750300,TPSCR.G5,TPSH,ROBOT,2020-10-18,n/a,GPS,PRE300ZAF
PRE400ZAF,IGS,Pretoria,South Africa,NGA,-25.7464944,28.2240444,1413.8,PRE400ZAF,ITT 3750300,TPSCR.G5,TPSH,ROBOT,2020-10-18,n/a,GPS,PRE400ZAF
PTAG00PHL,IGS,Taguig City,Philippines,NAMRIA,14.5354417,121.0407654,86.647,PTAG00PHL,LEICA GR50,LEIAR25.R4,LEIT,ROBOT,2020-10-20,2019-01-13,GPS+GLO+GAL+BDS+QZSS+SBAS,PTAG00PHL
PTBB00DEU,IGS,Braunschweig,Germany,BKG,52.2961889,10.4597444,130.2,PTBB00DEU,SEPT POLARX5TR,LEIAR25.R4,LEIT,ROBOT,2020-10-20,2020-10-20,GPS+GLO+GAL+BDS+QZSS+IRNSS+SBAS,PTBB00DEU
PTGG00PHL,IGS,Taguig City,Philippines,CNES,14.5354022,121.0412654,86.944,PTGG00PHL,SEPT POLARX5,TRM59800.00,SCIS,ROBOT,2020-10-20,2020-10-20,GPS+GLO+GAL+BDS+QZSS+SBAS+IRNSS,PTGG00PHL
PTVL00VUT,IGS,Port Vila,Vanuatu,GA,-17.7494333,168.315025,86.4,PTVL00VUT,TRIMBLE NETR9,JAVRINGANT_DM,NONE,ROBOT,2020-05-05,2020-05-04,QZSS+GPS+GLO+GAL+BDS,PTVL00VUT
QAQ100GRL,IGS,Qaqortoq / Julianehaab,Greenland,DTU Space,60.7152639,-46.0477611,110.4,QAQ100GRL,SEPT POLARX5,ASH701945E_M,SCIS,ROBOT,2020-10-20,2020-10-19,GPS+GLO+GAL+BDS+QZSS+SBAS,QAQ100GRL
QIKI00CAN,IGS,Qikiqtarjuaq (Baffin Island),Canada,NRCan/GSD,67.5593333,-64.0336667,13.3,QIKI00CAN,ASHTECH UZ-12,ASH701945E_M,NONE,ROBOT,2019-05-14,n/a,GPS,QIKI00CAN
QUI300ECU,IGS,Quito,Ecuador,NGA,0.2151583,-78.4936083,2922.7,QUI300ECU,ITT 3750300,TPSCR.G5,TPSH,ROBOT,2020-10-18,n/a,GPS,QUI300ECU
QUI400ECU,IGS,Quito,Ecuador,NGA,0.2151583,-78.4936083,2922.7,QUI400ECU,ITT 3750300,TPSCR.G5,TPSH,ROBOT,2020-10-18,n/a,GPS,QUI400ECU
QUIN00USA,IGS,Quincy,United States,JPL,39.9745528,-120.9444278,"1105.7651, WGS84",QUIN00USA,JAVAD TRE_3 DELTA,ASH701945E_M,SNOW,ROBOT,2020-10-20,2020-10-19,GPS+GLO+GAL+BDS+QZSS,QUIN00USA
RABT00MAR,IGS,Rabat,Morocco,JPL,33.9981028,-6.8542889,90.1,RABT00MAR,JAVAD TRE_3 DELTA,TRM29659.00,SCIS,ROBOT,2019-11-29,2019-11-28,GPS+GLO+GAL+BDS+IRNSS,RABT00MAR
RAEG00PRT,IGS,Vila do Porto,Portugal,IGN-E,36.9857,-25.1263889,297.9,RAEG00PRT,LEICA GR25,LEIAR20,NONE,ROBOT,2020-10-20,2020-10-20,GPS+GLO,RAEG00PRT
RAMO00ISR,IGS,Mitzpe Ramon,Israel,SOI,30.5977583,34.7631389,893.1,RAMO00ISR,JAVAD TRE_G3TH DELTA,ASH701945B_M,SNOW,COPIED,2020-10-20,n/a,GPS+GLO,RAMO00ISR
RBAY00ZAF,IGS,Richardsbay,South Africa,NGI,-28.7955458,32.0783851,31.7927,RBAY00ZAF,TRIMBLE NETR9,TRM59800.00,SCIS,ROBOT,2020-08-02,n/a,GPS+GLO,RBAY00ZAF
RCMN00KEN,IGS,NAIROBI,Kenya,RCMRD,-1.221,36.8937778,1607.54,RCMN00KEN,LEICA GRX1200GGPRO,LEIAT504GG,LEIS,ROBOT,2016-10-17,n/a,GPS+GLO,RCMN00KEN
RDSD00DOM,IGS,Santo Domingo,Dominican Republic,Geomedicion,18.4613972,-69.9113,-9.2087,RDSD00DOM,TRIMBLE NETR9,TRM59800.00,SCIS,ROBOT,2020-10-20,2020-10-19,GPS+GLO+GAL+BDS,RDSD00DOM
REDU00BEL,IGS,Redu,Belgium,ESOC,50.0015,5.1448806,369.9,REDU00BEL,SEPT POLARX5,SEPCHOKE_B3E6,NONE,ROBOT,2020-04-05,2020-10-20,GPS+GLO+GAL+BDS+SBAS,REDU00BEL
RESO00CAN,IGS,Resolute (Cornwallis Island),Canada,NRCan/GSD,74.6908,-94.8933,34.9,RESO00CAN,ASHTECH UZ-12,ASH700936A_M,NONE,COPIED,2017-12-15,n/a,GPS,RESO00CAN
REUN00REU,IGS,Le Tampon,France,IPGP,-21.2083333,55.5716667,1558.4,REUN00REU,SEPT POLARX5,TRM55971.00,NONE,ROBOT,2020-10-20,2020-10-20,GPS+GLO+GAL+BDS+SBAS,REUN00REU
REYK00ISL,IGS,Reykjavik,Iceland,BKG,64.1387833,-21.9554833,93.1,REYK00ISL,LEICA GR50,LEIAR25.R4,LEIT,ROBOT,2020-10-20,2020-10-20,GPS+GLO+GAL+BDS+IRNSS+SBAS,REYK00ISL
RGDG00ARG,IGS,Rio Grande,Argentina,CNES,-53.7858385,-67.7515279,32.364,RGDG00ARG,TRIMBLE ALLOY,TRM59800.00,SCIS,ROBOT,2020-10-20,2020-10-20,GPS+GLO+GAL+BDS+SBAS,RGDG00ARG
RIGA00LVA,IGS,Riga,Latvia,LUAI,56.9486194,24.0587722,34.7,RIGA00LVA,LEICA GR25,LEIAR25.R4,LEIT,ROBOT,2020-10-20,2020-10-19,GPS+GLO+GAL+BDS+SBAS,RIGA00LVA
RIO200ARG,IGS,Rio Grande,Argentina,GFZ,-53.7854722,-67.7511194,32,RIO200ARG,SEPT ASTERX4,SEPCHOKE_B3E6,NONE,ROBOT,2019-02-26,2020-10-20,GPS+GLO+GAL+BDS+SBAS,RIO200ARG
RIOP00ECU,IGS,Riobamba,Ecuador,UNAVCO,-1.6506,-78.6511,2793,RIOP00ECU,TRIMBLE NETRS,TRM41249.00,NONE,ROBOT,2020-10-19,n/a,GPS,RIOP00ECU
ROAG00ESP,IGS,San Fernando,Spain,ROA,36.46335,-6.206275,83.2,ROAG00ESP,SEPT POLARX5TR,LEIAR25.R4,NONE,ROBOT,2020-10-19,2020-10-20,GPS+GLO+GAL+BDS+SBAS+IRNSS,ROAG00ESP
ROCK00USA,IGS,Simi Valley,United States of America,USGS,34.235675,-118.6764306,553.39,ROCK00USA,TPS NET-G3A,TPSCR.G3,SCIS,ROBOT,2020-10-20,n/a,GPS+GLO,ROCK00USA
ROTH00ATA,IGS,Rothera Station,Antarctica,NCL,-67.5714022,-68.1257462,39.793,ROTH00ATA,LEICA GRX1200+GNSS,LEIAR25,LEIT,ROBOT,2020-10-01,n/a,GPS+GLO,ROTH00ATA
SALU00BRA,IGS,SÃ£o Luis,Brazil,IBGE,-2.5934583,-44.2124778,18.9,SALU00BRA,TRIMBLE NETR9,TRM115000.00,NONE,ROBOT,2020-10-19,2020-10-19,GPS+GLO+GAL+BDS,SALU00BRA
SAMO00WSM,IGS,"Fagalii Village District, Apia",Samoa,GA,-13.8492111,-171.7384194,76.9,SAMO00WSM,TRIMBLE NETR9,JAVRINGANT_DM,NONE,ROBOT,2020-04-30,2020-04-29,GPS+GLO+GAL+BDS+QZSS,SAMO00WSM
SANT00CHL,IGS,Santiago,Chile,JPL,-33.1502878,-70.6685535,723.0746,SANT00CHL,SEPT POLARX5,JAVRINGANT_DM,NONE,ROBOT,2020-10-20,2020-10-19,GPS+GLO+GAL+BDS,SANT00CHL
SASK00CAN,IGS,Saskatoon,Canada,NRCan,52.1962556,-106.3983528,580,SASK00CAN,JAVAD TRE_G3TH DELTA,NOV750.R4,NOVS,ROBOT,2020-10-20,2020-10-19,GPS+GLO+GAL,SASK00CAN
SAVO00BRA,IGS,Salvador,Brazil,IBGE,-12.9392472,-38.4322528,76.3,SAVO00BRA,TRIMBLE NETR9,TRM115000.00,NONE,ROBOT,2020-10-19,2020-10-19,GPS+GLO+GAL+BDS,SAVO00BRA
SBOK00ZAF,IGS,SPRINGBOK,South Africa,NGI,-29.6693222,17.8792083,1043.1,SBOK00ZAF,TRIMBLE NETRS,ASH701941.B,SCIS,ROBOT,2020-10-20,n/a,GPS,SBOK00ZAF
SCH200CAN,IGS,Schefferville,Canada,NRCan,54.8321,-66.8326,498.2,SCH200CAN,JAVAD TRE_3N DELTA,ASH701945E_M,NONE,ROBOT,2020-10-20,2020-10-19,GPS+GLO+GAL,SCH200CAN
SCIP00USA,IGS,San Clemente Island,United States,SIO,32.91,-118.49,452.87,SCIP00USA,TPS NET-G3A,TPSCR.G3,SCIS,ROBOT,2020-08-06,n/a,GPS+GLO,SCIP00USA
SCOR00GRL,IGS,Scoresbysund/Ittoqqoormiit,Greenland,DTU Space,70.4853333,-21.9503361,128.5,SCOR00GRL,SEPT POLARX5,ASH701941.B,SCIS,ROBOT,2020-10-20,2020-10-19,GPS+GLO+GAL+BDS+QZSS+SBAS,SCOR00GRL
SCRZ00BOL,IGS,SANTA CRUZ DE LA SIERRA,Bolivia,DGFI,-17.7967917,-63.1596778,442.2,SCRZ00BOL,LEICA GR10,LEIAR10,NONE,ROBOT,2020-10-20,2020-10-19,GPS+GLO+GAL+BDS+SBAS,SCRZ00BOL
SCTB00ATA,IGS,Scott Base,Antarctica,GNS,-77.8489861,166.7580139,-18.9,SCTB00ATA,TRIMBLE ALLOY,TRM115000.00,NONE,ROBOT,2020-10-15,2019-01-22,GPS+GLO+GAL+BDS+QZSS,SCTB00ATA
SCUB00CUB,IGS,Santiago de Cuba,Cuba,GFZ,20.0120667,-75.7623139,21.9,SCUB00CUB,JAVAD TRE_G3TH DELTA,JAV_RINGANT_G3T,NONE,ROBOT,2018-12-14,2020-10-20,GPS+GLO+GAL,SCUB00CUB
SEJN00KOR,IGS,Sejong,South Korea,NGII,36.5222111,127.3031917,181.196,SEJN00KOR,TRIMBLE NETR9,TRM59800.00,SCIS,ROBOT,2020-10-18,n/a,GPS+GLO,SEJN00KOR
SEME00KAZ,IGS,Semey,Kazakhstan,JSC KGS,50.4326944,80.2659083,180.2105,SEME00KAZ,LEICA GR10,LEIAR25.R4,LEIT,ROBOT,2020-10-20,2020-10-20,GPS+GLO+GAL+SBAS,SEME00KAZ
SEY200SYC,IGS,La Misere,Seychelles,JPL,-4.6736512,55.4794536,538.8156,SEY200SYC,JAVAD TRE_G3TH DELTA,JAVRINGANT_DM,SCIS,ROBOT,2020-10-19,2020-10-18,GPS+GLO+GAL+BDS,SEY200SYC
SEYG00SYC,IGS,Pointe Larue,Seychelles,CNES,-4.6787318,55.5306305,-37.085,SEYG00SYC,SEPT POLARX5,TRM59800.00,NONE,ROBOT,2020-10-20,2020-10-20,GPS+GLO+GAL+BDS+SBAS+IRNSS,SEYG00SYC
SFDM00USA,IGS,Piru,United States,UNAVCO,34.4598056,-118.7545056,291.52,SFDM00USA,TRIMBLE NETRS,ASH701945B_M,SCIT,FIELD,2020-10-17,n/a,GPS,SFDM00USA
SFER00ESP,IGS,San Fernando,Spain,ROA,36.4643444,-6.2056472,84.1,SFER00ESP,LEICA GR25,LEIAR25,NONE,ROBOT,2020-05-03,2020-10-19,GPS+GLO+GAL+SBAS,SFER00ESP
SGOC00LKA,IGS,"Narahenpita, Colombo",Sri Lanka,GFZ,6.892075,79.8741778,-78.5,SGOC00LKA,JAVAD TRE_3,JAVRINGANT_G5T,NONE,ROBOT,2018-12-16,2020-10-20,GPS+GLO+GAL+BDS+QZSS+IRNSS+SBAS,SGOC00LKA
SGPO00USA,IGS,Billings,United States of America,GFZ,36.6041833,-97.4848222,290.2,SGPO00USA,JAVAD TRE_3,JAVRINGANT_G5T,NONE,ROBOT,n/a,2020-10-20,GPS+GLO+GAL+BDS,SGPO00USA
SHAO00CHN,IGS,Sheshan,China,SHAO,31.0996422,121.2004449,22.0901,SHAO00CHN,ASHTECH UZ-12,AOAD/M_T,JPLA,n/a,2019-03-19,n/a,GPS,SHAO00CHN
SHE200CAN,IGS,Shediac,Canada,NRCan/GSD,46.2206908,-64.55201,-15.3,SHE200CAN,TRIMBLE NETR8,TRM29659.00,NONE,ROBOT,2020-10-20,n/a,GPS,SHE200CAN
SIN100SGP,IGS,Singapore,Singapore,DLR/GSOC,1.3429811,103.6794383,92.54,SIN100SGP,TRIMBLE NETR9,LEIAR25.R3,LEIT,ROBOT,n/a,2020-10-20,GPS+GLO+GAL+BDS+QZSS+SBAS,SIN100SGP
SMST00JPN,IGS,Nachi Katsuura-cho,Japan,"HOD, JCG",33.5778553,135.9369553,97.536,SMST00JPN,TRIMBLE NETR9,TRM57971.00,NONE,ROBOT,2020-10-19,n/a,GPS,SMST00JPN
SNI100USA,IGS,San Nicolas Island,United States of America,USGS,33.247875,-119.5243639,239.67,SNI100USA,TPS NET-G3A,TPSCR.G3,SCIS,ROBOT,2019-05-29,n/a,GPS+GLO,SNI100USA
SOD300FIN,IGS,Sodankyla,Finland,FGI,67.4207861,26.3892861,300.8,SOD300FIN,JAVAD TRE_3 DELTA,JAVRINGANT_DM,SCIS,ROBOT,2020-08-17,2020-10-20,GPS+GLO+GAL+BDS+SBAS,SOD300FIN
SOFI00BGR,IGS,Sofia,Bulgaria,BKG,42.5560917,23.3947278,1119.6,SOFI00BGR,LEICA GRX1200GGPRO,LEIAR25.R3,LEIT,ROBOT,2020-10-20,n/a,GPS+GLO,SOFI00BGR
SOLO00SLB,IGS,Honiara,Solomon Islands,GA,-9.4349222,159.9543444,122.9,SOLO00SLB,TRIMBLE NETR9,JAVRINGANT_DM,NONE,ROBOT,2020-09-30,2020-10-20,GPS+GLO+GAL+BDS+QZSS,SOLO00SLB
SPK100USA,IGS,Saddle Peak,United States of America,USGS,34.0593417,-118.6461611,440.13,SPK100USA,TPS NET-G3A,TPSCR.G3,NONE,ROBOT,2020-02-12,n/a,GPS+GLO,SPK100USA
SPT000SWE,IGS,Boras,Sweden,LMV,57.7149556,12.8913444,219.9,SPT000SWE,SEPT POLARX5TR,TRM59800.00,OSOD,n/a,2020-04-27,2020-10-20,GPS+GLO+GAL+BDS+SBAS,SPT000SWE
SPTU00BRA,IGS,TupÃ£,Brazil,FCT/UNESP,-21.9291167,-50.4923694,508.78,SPTU00BRA,TRIMBLE NETR9,TRM57971.00,NONE,ROBOT,n/a,2020-10-20,GPS+GLO+GAL+BDS,SPTU00BRA
SSIA00SLV,IGS,San Salvador,El Salvador,CNR,13.6973,-89.1162,664.4,SSIA00SLV,TRIMBLE NETR9,TRM59800.80,SCIS,COPIED,2020-10-20,n/a,GPS+GLO+GAL,SSIA00SLV
STFU00USA,IGS,Palo Alto,United States,DLR/IKN,37.4269069,-122.1732908,20.41,STFU00USA,JAVAD TRE_G3TH DELTA,TRM57971.00,NONE,ROBOT,n/a,2020-10-12,GPS+GLO+GAL+SBAS,STFU00USA
STHL00GBR,IGS,Longwood,United Kingdom,JPL,-15.9425339,-5.6673454,453.29,STHL00GBR,JAVAD TRE_3 DELTA,TPSCR.G3,SCIS,ROBOT,2020-10-20,2020-10-19,GPS+GLO+GAL+BDS+QZSS,STHL00GBR
STJ300CAN,IGS,ST. JOHN'S,Canada,CNES,47.5954351,-52.6783078,154.515,STJ300CAN,SEPT POLARX5TR,LEIAR25.R4,NONE,ROBOT,2020-10-20,2020-10-20,GPS+GLO+GAL+BDS+SBAS+IRNSS,STJ300CAN
STJO00CAN,IGS,St. John's,Canada,NRCan,47.5952389,-52.6777472,152.8,STJO00CAN,JAVAD TRE_3N DELTA,AOAD/M_T,NONE,ROBOT,2020-10-20,2020-10-19,GPS+GLO+GAL,STJO00CAN
STK200JPN,IGS,Shintotsukawa,Japan,GSI,43.5286444,141.8448194,118.54,STK200JPN,TRIMBLE NETR9,TRM59800.00,SCIS,ROBOT,2020-10-20,2020-10-19,GPS+GLO+GAL+QZSS,STK200JPN
STPM00SPM,IGS,Saint Pierre,France,IGN,46.7778238,-56.1682444,0.473,STPM00SPM,TRIMBLE NETR9,TRM57971.00,NONE,ROBOT,2020-10-20,2020-10-20,GPS+GLO+GAL+BDS+SBAS,STPM00SPM
STR100AUS,IGS,Canberra,Australia,GA,-35.3155389,149.0108833,800,STR100AUS,SEPT POLARX5,ASH701945C_M,NONE,ROBOT,2020-10-01,2020-10-20,GPS+GLO+GAL+BDS+QZSS+IRNSS,STR100AUS
STR200AUS,IGS,Canberra,Australia,GA,-35.3161667,149.0101528,802.6,STR200AUS,TRIMBLE ALLOY,LEIAR25.R3,NONE,ROBOT,2020-09-29,2020-10-20,GPS+GLO+GAL+BDS+QZSS,STR200AUS
SULP00UKR,IGS,Lviv,Ukraine,NULP,49.8355889,24.0144889,370.5,SULP00UKR,TPS NET-G3A,TPSCR.G5,TPSH,ROBOT,2020-10-19,n/a,GPS+GLO+SBAS,SULP00UKR
SUTH00ZAF,IGS,Sutherland,South Africa,JPL,-32.3802108,20.8104623,1799.7659,SUTH00ZAF,SEPT POLARX5,ASH701945G_M,NONE,ROBOT,2020-10-20,2020-10-19,GPS+GLO+GAL+BDS,SUTH00ZAF
SUTM00ZAF,IGS,Sutherland,South Africa,GFZ,-32.3814361,20.8109111,1797.6,SUTM00ZAF,JAVAD TRE_3,JAVRINGANT_G5T,NONE,ROBOT,2018-12-16,2020-10-20,GPS+GLO+GAL+BDS+IRNSS+SBAS,SUTM00ZAF
SUWN00KOR,IGS,Suwon-shi,Republic of Korea,NGII,37.2755,127.0542,83.9322,SUWN00KOR,TRIMBLE NETR9,TRM59800.80,SCIS,COPIED,2020-10-20,n/a,GPS+GLO+GAL+BDS,SUWN00KOR
SVTL00RUS,IGS,Svetloe,Russian Federation,IAA,60.5328556,29.7808722,76.8,SVTL00RUS,JAVAD TRE_3 DELTA,JAVRINGANT_DM,JVDM,ROBOT,2020-10-20,n/a,GPS+GLO+GAL,SVTL00RUS
SYDN00AUS,IGS,Sydney,Australia,GA,-33.7808845,151.1503769,85.6837,SYDN00AUS,SEPT POLARX4TR,ASH701945C_M,NONE,ROBOT,2020-10-17,2020-10-04,GPS+GLO+GAL+BDS+QZSS,SYDN00AUS
SYOG00ATA,IGS,East Ongle Island,Antarctica,GSI,-69.007,39.5837,50.0902,SYOG00ATA,TRIMBLE ALLOY,TRM159900.00,SCIS,ROBOT,2020-10-20,2020-10-19,GPS+GLO+GAL+QZSS,SYOG00ATA
TABL00USA,IGS,Wrightwood,United States of America,USGS,34.38185,-117.6782833,2228.03,TABL00USA,TRIMBLE NETR9,TRM57971.00,NONE,ROBOT,2020-10-20,n/a,GPS+GLO+SBAS,TABL00USA
TANA00ETH,IGS,Bahir Dar,Ethiopia,ILABDU,11.5690716,37.3291059,1850.9624,TANA00ETH,LEICA GR25,LEIAR25.R4,LEIT,ROBOT,2016-08-04,n/a,GPS+GLO,TANA00ETH
TASH00UZB,IGS,Tashkent,Uzbekistan,GFZ,41.32805,69.2955667,439.7,TASH00UZB,SEPT ASTERX4,SEPCHOKE_B3E6,NONE,ROBOT,2018-12-16,2020-10-20,GPS+GLO+GAL+BDS+QZSS+IRNSS+SBAS,TASH00UZB
TCMS00TWN,IGS,Hsinchu,Taiwan,NML,24.7979861,120.9873891,77.2607,TCMS00TWN,LEICA RS500,LEIAT504,NONE,ROBOT,2020-10-19,n/a,GPS,TCMS00TWN
TDOU00ZAF,IGS,THOHOYANDOU,South Africa,NGI,-23.0799083,30.3840056,630.2,TDOU00ZAF,TRIMBLE NETRS,LEIAT504,LEIS,ROBOT,2020-09-14,n/a,GPS,TDOU00ZAF
TEHN00IRN,IGS,TEHRAN,Islamic Republic of Iran,NCC,35.6972806,51.3340917,1194.57,TEHN00IRN,TRIMBLE NETR9,TRM57971.00,NONE,ROBOT,2020-10-04,n/a,GPS+GLO,TEHN00IRN
THTG00PYF,IGS,Papeete,French Polynesia,CNES,-17.5770603,-149.6064384,97.994,THTG00PYF,SEPT POLARX5TR,LEIAR25.R3,LEIT,ROBOT,2020-10-19,2020-10-20,GPS+GLO+GAL+BDS+QZSS+SBAS+IRNSS,THTG00PYF
THTI00PYF,IGS,Papeete,French Polynesia,CNES,-17.5770584,-149.606445,98.49,THTI00PYF,TRIMBLE NETR8,ASH701945E_M,NONE,ROBOT,2020-10-20,n/a,GPS+GLO+SBAS,THTI00PYF
THU200GRL,IGS,Thule Airbase,Greenland,DTU Space,76.537,-68.825,36.1,THU200GRL,SEPT POLARX5,ASH701073.1,SCIS,ROBOT,2020-10-20,2020-10-19,GPS+GLO+GAL+BDS+QZSS,THU200GRL
TID100AUS,IGS,Canberra,Australia,GA,-35.3992111,148.9799944,665.4,TID100AUS,SEPT POLARX5,AOAD/M_T,NONE,ROBOT,2020-10-01,2020-10-20,GPS+GLO+GAL+BDS+QZSS,TID100AUS
TIDB00AUS,IGS,Tidbinbilla,Australia,JPL,-35.3992056,148.9799972,665.3719,TIDB00AUS,ASHTECH UZ-12,AOAD/M_T,NONE,ROBOT,2020-10-20,n/a,GPS,TIDB00AUS
TIT200DEU,IGS,Titz,Germany,BKG,51.0352333,6.4315778,156.1,TIT200DEU,JAVAD TRE_3 DELTA,LEIAR25.R4,LEIT,ROBOT,2020-10-20,2020-10-20,GPS+GLO+GAL+BDS+SBAS,TIT200DEU
TIXI00RUS,IGS,Tixi,Russian Federation,RDAAC,71.634475,128.8664139,46.9847,TIXI00RUS,JPS EGGDT,TPSCR3_GGD,NONE,ROBOT,2020-10-20,n/a,GPS+GLO,TIXI00RUS
TLSE00FRA,IGS,Toulouse,France,CNES,43.5606944,1.4808722,207.2,TLSE00FRA,TRIMBLE NETR9,TRM59800.00,NONE,ROBOT,2020-10-20,2020-10-20,GPS+GLO+GAL+BDS+SBAS,TLSE00FRA
TLSG00FRA,IGS,Toulouse,France,CNES,43.5497125,1.4850415,208.753,TLSG00FRA,SEPT POLARX5TR,TRM59800.00,NONE,ROBOT,2020-10-20,2020-10-20,GPS+GLO+GAL+BDS+SBAS+IRNSS,TLSG00FRA
TNML00TWN,IGS,Hsinchu,Taiwan,NML,24.7979549,120.9873441,75.8599,TNML00TWN,AOA BENCHMARK ACT,AOAD/M_T,NONE,ROBOT,2020-10-18,n/a,GPS,TNML00TWN
TONG00TON,IGS,Nuku'alofa,Tonga,GA,-21.1447139,-175.1792222,56.3,TONG00TON,SEPT POLARX5,TRM59800.00,NONE,ROBOT,2020-10-01,2020-09-30,QZSS+GPS+GLO+GAL+BDS,TONG00TON
TOPL00BRA,IGS,Palmas,Brazil,IBGE,-10.1710528,-48.3306778,256.55,TOPL00BRA,TRIMBLE NETR9,TRM115000.00,NONE,ROBOT,2020-10-19,2020-10-19,GPS+GLO+GAL+BDS,TOPL00BRA
TORP00USA,IGS,Torrance,United States of America,USGS,33.7977972,-118.3306028,-5.22,TORP00USA,TPS NET-G3A,TPSCR.G3,SCIS,ROBOT,2020-10-20,n/a,GPS+GLO,TORP00USA
TOW200AUS,IGS,Cape Ferguson,Australia,GA,-19.2692861,147.0556861,88.2,TOW200AUS,SEPT POLARX5,LEIAR25.R3,NONE,ROBOT,2020-09-30,2020-10-20,GPS+QZSS+GLO+GAL+BDS,TOW200AUS
TRAK00USA,IGS,Irvine,United States of America,SIO,33.6179361,-117.8034389,115.5,TRAK00USA,TPS NET-G3A,TPSCR.G3,SCIT,n/a,2020-10-20,n/a,GPS+GLO,TRAK00USA
TRO100NOR,IGS,Tromsoe,Norway,NMA,69.6627139,18.9396306,138,TRO100NOR,TRIMBLE NETR9,TRM59800.00,SCIS,ROBOT,2020-10-20,2020-10-19,GPS+GLO+GAL+BDS,TRO100NOR
TSK200JPN,IGS,Tsukuba,Japan,GSI,36.105575,140.0871167,69.93,TSK200JPN,TRIMBLE NETR9,TRM59800.00,NONE,ROBOT,2020-10-20,2020-10-19,GPS+GLO+GAL+QZSS,TSK200JPN
TSKB00JPN,IGS,Tsukuba,Japan,GSI,36.1056806,140.0874972,67.3,TSKB00JPN,TRIMBLE NETR9,AOAD/M_T,DOME,n/a,2020-10-20,2020-10-19,GPS+GLO+QZSS,TSKB00JPN
TUBI00TUR,IGS,Gebze,Turkey,TUBITAK MRC,40.7867278,29.450675,221.8,TUBI00TUR,TRIMBLE 5700,TRM29659.00,UNAV,ROBOT,2020-10-20,n/a,GPS,TUBI00TUR
TUVA00TUV,IGS,Funafuti,Tuvalu,GA,-8.5252917,179.1965611,38.4,TUVA00TUV,TRIMBLE NETR9,JAVRINGANT_DM,NONE,ROBOT,2019-02-15,2019-02-14,GPS+QZSS+GLO+GAL,TUVA00TUV
TWTF00TWN,IGS,Taoyuan,Taiwan (Province of China),TL,24.9536,121.1645,203.122,TWTF00TWN,SEPT POLARX4TR,ASH701945C_M,SCIS,ROBOT,2020-10-06,2020-10-19,GPS+GLO+GAL+BDS+QZSS+SBAS,TWTF00TWN
UCAL00CAN,IGS,Calgary,Canada,DLR/GSOC,51.079975,-114.13385,1118.8,UCAL00CAN,TRIMBLE NETR9,TRM57971.00,NONE,ROBOT,n/a,2020-10-19,GPS+GLO+GAL+BDS+QZSS+SBAS,UCAL00CAN
UCLP00USA,IGS,Los Angeles,United States of America,USGS,34.0691222,-118.4419111,111.54,UCLP00USA,TPS NET-G3A,TPSCR.G3,SCIS,ROBOT,2019-07-12,n/a,GPS+GLO,UCLP00USA
UCLU00CAN,IGS,Ucluelet,Canada,GSC,48.9256,-125.5416,10,UCLU00CAN,SEPT POLARX5,SEPCHOKE_B3E6,SPKE,ROBOT,2020-10-20,n/a,GPS+GLO+GAL,UCLU00CAN
UFPR00BRA,IGS,Curitiba,Brazil,IBGE,-25.4483694,-49.2309556,925.8,UFPR00BRA,TRIMBLE NETR9,TRM115000.00,NONE,ROBOT,2020-10-19,2020-10-19,GPS+GLO+GAL+BDS,UFPR00BRA
ULAB00MNG,IGS,Ulaanbataar,Mongolia,GFZ,47.8650667,107.0523306,1575.7,ULAB00MNG,JAVAD TRE_3,JAVRINGANT_G5T,NONE,ROBOT,2018-12-16,2020-10-20,GPS+GLO+GAL+BDS+QZSS+IRNSS+SBAS,ULAB00MNG
ULDI00ZAF,IGS,ULUNDI,South Africa,NGI,-28.2931167,31.4209222,607.9,ULDI00ZAF,TRIMBLE NETR9,ASH701941.B,SCIS,ROBOT,2020-10-20,n/a,GPS+GLO,ULDI00ZAF
UNB300CAN,IGS,Fredericton,Canada,UNB,45.9502083,-66.6417056,22.85,UNB300CAN,TRIMBLE ALLOY,TRM57971.00,NONE,ROBOT,2016-11-28,2020-10-19,GPS+GLO+GAL+BDS+SBAS,UNB300CAN
UNBD00CAN,IGS,Fredericton,Canada,UNB,45.9501233,-66.6414947,23.12,UNBD00CAN,JAVAD TRE_G2T DELTA,TRM55971.00,NONE,ROBOT,n/a,2020-07-20,GPS+GAL+SBAS,UNBD00CAN
UNBJ00CAN,IGS,Fredericton,Canada,UNB,45.9502083,-66.6417056,22.75,UNBJ00CAN,TPS LEGACY,TRM57971.00,NONE,ROBOT,2020-10-20,n/a,GPS+GLO,UNBJ00CAN
UNBN00CAN,IGS,Fredericton,Canada,UNB,45.9502083,-66.6417056,22.85,UNBN00CAN,NOV OEM6,TRM57971.00,NONE,ROBOT,2020-10-20,2016-11-29,GPS+GLO+SBAS,UNBN00CAN
UNSA00ARG,IGS,Salta,Argentina,GFZ,-24.7274556,-65.4076444,1257.8,UNSA00ARG,SEPT ASTERX4,SEPCHOKE_B3E6,NONE,ROBOT,2019-02-26,2020-10-20,GPS+GLO+GAL+BDS+SBAS,UNSA00ARG
UNX200AUS,IGS,Sydney,Australia,DLR/GSOC,-33.9177667,151.2318739,87.07,UNX200AUS,JAVAD TRE_G3TH DELTA,LEIAR25.R3,LEIT,ROBOT,n/a,2017-08-29,GPS+GLO+GAL+QZSS+IRNSS+SBAS,UNX200AUS
UNX300AUS,IGS,Sydney,Australia,DLR/GSOC,-33.9177667,151.2318739,87.07,UNX300AUS,SEPT POLARX4,LEIAR25.R3,LEIT,ROBOT,n/a,2017-08-29,GPS+GLO+GAL+BDS+QZSS+SBAS,UNX300AUS
URAL00RUS,IGS,Ekaterinburg,Russian Federation,FBI URALTEST,56.838275,60.6148583,279.96,URAL00RUS,TRIMBLE R9S,CHCC220GR2,CHCD,ROBOT,n/a,2020-10-18,GPS+GLO+GAL+QZSS+SBAS,URAL00RUS
URUM00CHN,IGS,Urumqi,China,GFZ,43.80795,87.6006722,858.9,URUM00CHN,JAVAD TRE_3,JAVRINGANT_G5T,NONE,ROBOT,2018-12-16,2020-10-20,GPS+GLO+GAL+BDS+QZSS+IRNSS+SBAS,URUM00CHN
USN700USA,IGS,Washington,United States of America,JPL,38.9205661,-77.0662766,58.924,USN700USA,SEPT POLARX5TR,TPSCR.G5,TPSH,ROBOT,2020-09-17,2020-09-17,GPS+GLO+GAL+BDS,USN700USA
USN800USA,IGS,Washington,United States of America,USNO,38.9205661,-77.0662766,58.924,USN800USA,SEPT POLARX5TR,TPSCR.G5,TPSH,ROBOT,2020-10-18,2020-10-20,GPS+GLO+GAL+BDS+SBAS,USN800USA
USN900USA,IGS,Washington,United States of America,USNO,38.9205661,-77.0662766,58.924,USN900USA,NOV OEM6,TPSCR.G5,TPSH,ROBOT,2020-09-05,2020-09-05,GPS+GLO+GAL+BDS+SBAS,USN900USA
USNO00USA,IGS,Washington,United States,NGS,38.9189639,-77.066225,48.9,USNO00USA,ASHTECH Z-XII3T,AOAD/M_T,NONE,ROBOT,2015-03-19,n/a,GPS,USNO00USA
USP100FJI,IGS,Suva,Fiji,BHU,-18.1490861,178.4463722,70.6,USP100FJI,PANDA PD51A,HXCCGX601A,HXCS,ROBOT,n/a,2020-10-20,GPS+GLO+GAL+BDS,USP100FJI
USUD00JPN,IGS,Usuda,Japan,JPL,36.1331103,138.3620436,1508.6193,USUD00JPN,SEPT POLARX5,AOAD/M_T,JPLA,n/a,2020-10-20,2020-10-19,GPS+GLO+GAL+BDS+QZSS,USUD00JPN
UTQI00USA,IGS,Utqiagvik/Barrow,United States of America,GFZ,71.3227556,-156.6150167,12.1,UTQI00USA,JAVAD TR_G3TH,JAV_GRANT-G3T,NONE,ROBOT,n/a,2020-10-20,GPS+GLO+GAL,UTQI00USA
UZHL00UKR,IGS,Uzhgorod,Ukraine,MAO,48.632,22.2976,232,UZHL00UKR,NOV OEMV3,NOV702GG,NONE,ROBOT,2017-10-19,n/a,GPS+GLO,UZHL00UKR
VACS00MUS,IGS,Vacoas,Mauritius,JPL,-20.2970911,57.4970366,420.4,VACS00MUS,SEPT POLARX5,JAVRINGANT_DM,NONE,ROBOT,2020-10-20,2020-10-19,GPS+GLO+GAL+BDS+QZSS+IRNSS,VACS00MUS
VALD00CAN,IGS,Val D'Or,Canada,NRCan,48.0970583,-77.5641667,312.8,VALD00CAN,TPS NET-G5,TPSCR.G3,NONE,ROBOT,2020-10-20,2020-10-19,GPS+GLO,VALD00CAN
VILL00ESP,IGS,Villafranca,Spain,ESOC,40.4435917,-3.9519806,647.4,VILL00ESP,SEPT POLARX5,SEPCHOKE_B3E6,NONE,ROBOT,2020-04-05,2020-10-20,GPS+GLO+GAL+BDS+SBAS,VILL00ESP
VIS000SWE,IGS,Visby,Sweden,LMV,57.6538667,18.3673111,79.8,VIS000SWE,SEPT POLARX5,AOAD/M_T,OSOD,n/a,2020-04-27,2020-10-20,GPS+GLO+GAL+BDS+SBAS,VIS000SWE
VNDP00USA,IGS,Vandenberg Air Force Base,United States of America,UNAVCO,34.5563111,-120.61645,-11.5,VNDP00USA,TRIMBLE NETR9,TRM59800.00,SCIS,ROBOT,2020-10-20,n/a,GPS+GLO+GAL,VNDP00USA
VOIM00MDG,IGS,Ambalavao,Madagascar,GFZ,-21.9063,46.7932722,1163.3,VOIM00MDG,JAVAD TR_G3TH,JAV_RINGANT_G3T,NONE,ROBOT,2018-12-16,2020-10-20,GPS+GLO+GAL,VOIM00MDG
WAB200CHE,IGS,Bern,Switzerland,METAS,46.92375,7.4642556,611.21,WAB200CHE,SEPT POLARX5TR,SEPCHOKE_B3E6,SPKE,ROBOT,2020-10-20,2020-10-19,GPS+GAL,WAB200CHE
WARK00NZL,IGS,Warkworth,New Zealand,GNS,-36.4344111,174.6627806,111.3,WARK00NZL,TRIMBLE ALLOY,TRM115000.00,NONE,ROBOT,2020-10-19,2019-01-22,GPS+GLO+GAL+BDS+QZSS,WARK00NZL
WARN00DEU,IGS,Rostock-Warnemuende,Germany,BKG,54.1697861,12.101425,50.8,WARN00DEU,JAVAD TRE_3 DELTA,LEIAR25.R4,LEIT,ROBOT,2020-10-20,2020-10-19,GPS+GLO+GAL+BDS+SBAS,WARN00DEU
WDC500USA,IGS,Washington D.C.,United States,NGA,38.9205639,-77.0663167,59,WDC500USA,ITT 3750300,TPSCR.G5,TPSH,ROBOT,2020-10-18,n/a,GPS,WDC500USA
WDC600USA,IGS,Washington D.C.,United States,NGA,38.9205639,-77.0663167,59,WDC600USA,ITT 3750300,TPSCR.G5,TPSH,ROBOT,2020-10-18,n/a,GPS,WDC600USA
WES200USA,IGS,Westford,United States,NGS,42.6133361,-71.4933278,85,WES200USA,SEPT POLARX5,TPSCR4,NONE,COPIED,2020-04-06,n/a,GPS+GLO+GAL,WES200USA
WGTN00NZL,IGS,Wellington,New Zealand,GNS,-41.3234564,174.8058931,26.06,WGTN00NZL,TRIMBLE ALLOY,TRM115000.00,NONE,ROBOT,2020-10-20,2019-01-22,GPS+GLO+GAL+BDS+QZSS,WGTN00NZL
WHC100USA,IGS,Whittier,United States of America,USGS,33.9798861,-118.0311694,94.25,WHC100USA,TPS NET-G3A,TPSCR.G3,SCIS,ROBOT,2020-10-20,n/a,GPS+GLO,WHC100USA
WHIT00CAN,IGS,Whitehorse,Canada,NRCan,60.7505,-135.2221,1427,WHIT00CAN,TPS NET-G3A,AOAD/M_T,NONE,ROBOT,2020-10-20,2020-10-19,GPS+GLO,WHIT00CAN
WIDC00USA,IGS,Sky Valley,United States of America,USGS,33.9347583,-116.3917806,445.04,WIDC00USA,TRIMBLE NETR9,TRM57971.00,NONE,ROBOT,2020-10-20,n/a,GPS,WIDC00USA
WILL00CAN,IGS,Williams Lake,Canada,GSC,52.2369,-122.1678,1096,WILL00CAN,TRIMBLE NETR9,TRM59800.00,SCIS,ROBOT,2020-10-20,n/a,GPS+GLO,WILL00CAN
WIND00NAM,IGS,Windhoek,Namibia,GFZ,-22.5749194,17.0894306,1734.7,WIND00NAM,JAVAD TRE_3,JAVRINGANT_G5T,NONE,ROBOT,2018-12-16,2020-10-20,GPS+GLO+GAL+BDS+IRNSS+SBAS,WIND00NAM
WLSN00USA,IGS,Mt. Wilson,United States of America,USGS,34.2261222,-118.0559139,1705.26,WLSN00USA,TPS NET-G3A,TPSCR.G3,NONE,ROBOT,2020-03-06,n/a,GPS+GLO,WLSN00USA
WROC00POL,IGS,Wroclaw,Poland,IGG WUELS,51.1132639,17.0620278,180.3,WROC00POL,LEICA GR50,LEIAR25.R4,LEIT,ROBOT,2020-10-20,2020-10-20,GPS+GLO+GAL+BDS+QZSS+SBAS,WROC00POL
WSRT00NLD,IGS,Westerbork,Netherlands,DUT,52.9146,6.6045,86,WSRT00NLD,SEPT POLARX5,AOAD/M_T,DUTD,ROBOT,2020-04-14,2020-10-20,GPS+GLO+GAL+BDS+QZSS+IRNSS+SBAS,WSRT00NLD
WTZ300DEU,IGS,Bad Koetzting,Germany,DLR/GSOC,49.1447778,12.8786389,663.4,WTZ300DEU,JAVAD TRE_G3TH DELTA,LEIAR25.R3,LEIT,ROBOT,2018-06-28,2020-10-20,GPS+GLO+GAL+SBAS,WTZ300DEU
WTZA00DEU,IGS,Bad Koetzting,Germany,BKG,49.144225,12.8789,665.9,WTZA00DEU,SEPT POLARX2,ASH700936C_M,SNOW,ROBOT,2020-10-20,n/a,GPS,WTZA00DEU
WTZR00DEU,IGS,Bad Koetzting,Germany,BKG,49.1441972,12.8789083,666,WTZR00DEU,LEICA GR50,LEIAR25.R3,LEIT,ROBOT,2020-10-20,2020-10-20,GPS+GLO+GAL+BDS+IRNSS+SBAS,WTZR00DEU
WTZS00DEU,IGS,Bad Koetzting,Germany,BKG,49.1447861,12.878625,663.4,WTZS00DEU,SEPT POLARX5TR,LEIAR25.R3,LEIT,ROBOT,2020-10-20,2020-10-20,GPS+GLO+GAL+BDS+IRNSS+SBAS,WTZS00DEU
WTZZ00DEU,IGS,Bad Koetzting,Germany,BKG,49.1442139,12.8789056,665.9,WTZZ00DEU,JAVAD TRE_3 DELTA,LEIAR25.R3,LEIT,ROBOT,2020-10-20,2020-10-20,GPS+GLO+GAL+BDS+SBAS,WTZZ00DEU
WUH200CHN,IGS,Wuhan City,China,GFZ,30.5317,114.3573,25.8,WUH200CHN,JAVAD TRE_3,JAVRINGANT_G5T,NONE,ROBOT,2018-12-16,2020-10-20,GPS+GLO+GAL+BDS+QZSS+IRNSS+SBAS,WUH200CHN
WUHN00CHN,IGS,Wuhan,China,WHU,30.5316528,114.3572611,28.2,WUHN00CHN,TRIMBLE NETR9,TRM59800.00C,ENCL,n/a,2016-09-26,2020-10-19,GPS+GLO+BDS,WUHN00CHN
XMIS00AUS,IGS,Christmas Island,Australia,GA,-10.4499694,105.6884944,261.6,XMIS00AUS,TRIMBLE NETR9,JAVRINGANT_DM,NONE,ROBOT,2020-09-30,2020-10-20,QZSS+GPS+GLO+GAL+BDS,XMIS00AUS
YAKT00RUS,IGS,Yakutsk,Russian Federation,RDAAC,62.0309611,129.6803,103.37,YAKT00RUS,JAVAD TRE_3N DELTA,ASH701933B_M,SCIS,n/a,2020-10-20,n/a,GPS+GLO,YAKT00RUS
YAR200AUS,IGS,Yarragadee,Australia,GA,-29.0465611,115.3469722,241.3,YAR200AUS,TRIMBLE ALLOY,AOAD/M_T,NONE,ROBOT,2020-08-07,2020-10-20,GPS+GLO+QZSS+GAL+IRNSS+BDS,YAR200AUS
YAR300AUS,IGS,Yarragadee,Australia,GA,-29.0465,115.3471472,242.7,YAR300AUS,SEPT POLARX5,LEIAR25,NONE,ROBOT,2020-10-01,2020-10-20,QZSS+GPS+GLO+GAL+BDS,YAR300AUS
YARR00AUS,IGS,Yarragadee,Australia,GA,-29.0465944,115.3469694,241.4,YARR00AUS,SEPT POLARX5,LEIAT504,NONE,ROBOT,2020-10-01,2020-10-20,GPS+GLO+GAL+BDS+QZSS+IRNSS,YARR00AUS
YEBE00ESP,IGS,Yebes,Spain,IGN-E,40.5248972,-3.0886306,972.8,YEBE00ESP,TRIMBLE NETR9,TRM29659.00,NONE,ROBOT,2020-10-20,2020-10-20,GPS+GLO,YEBE00ESP
YEL200CAN,IGS,YELLOWKNIFE,Canada,CNES,62.4813211,-114.4808464,181.008,YEL200CAN,SEPT POLARX5TR,LEIAR25.R4,NONE,ROBOT,2020-10-20,2020-10-20,GPS+GLO+GAL+BDS+SBAS,YEL200CAN
YELL00CAN,IGS,Yellowknife,Canada,NRCan,62.4809,-114.4807,181,YELL00CAN,JAVAD TRE_3N DELTA,AOAD/M_T,NONE,ROBOT,2020-10-20,2020-10-19,GPS+GLO+GAL,YELL00CAN
YIBL00OMN,IGS,Yibal,Oman,PDO,22.1864583,56.1123333,95.1,YIBL00OMN,TRIMBLE NETR9,ASH701945C_M,NONE,ROBOT,2019-06-30,n/a,GPS,YIBL00OMN
YKRO00CIV,IGS,Yamoussoukro,Cote d'Ivorie,JPL,6.8705603,-5.240093,270,YKRO00CIV,JAVAD TRE_3 DELTA,ASH701945C_M,NONE,ROBOT,2020-10-18,2020-10-18,GPS+GLO+GAL+BDS+QZSS+IRNSS,YKRO00CIV
YONS00KOR,IGS,SEOUL,Korea,SMG,37.5411222,127.0013444,96.849,YONS00KOR,TRIMBLE NETR9,TRM59800.00,SCIS,ROBOT,2016-02-28,n/a,GPS+GLO,YONS00KOR
YSSK00RUS,IGS,Yuzhno-Sakhalinsk,Russian Federation,RDAAC,47.0297361,142.7167194,91.2887,YSSK00RUS,JAVAD TRE_3N DELTA,ASH701933B_M,DOME,n/a,2020-10-20,n/a,GPS+GLO,YSSK00RUS
ZAMB00ZMB,IGS,Lusaka,Zambia,JPL,-15.4255408,28.3110124,1324.9144,ZAMB00ZMB,JAVAD TRE_3 DELTA,AOAD/M_T,NONE,ROBOT,2020-10-20,2020-10-19,GPS+GLO+GAL+BDS+QZSS,ZAMB00ZMB
ZECK00RUS,IGS,Zelenchukskaya,Russian Federation,BKG,43.7883917,41.5650667,1167,ZECK00RUS,JAVAD TRE_G3TH DELTA,JAVRINGANT_DM,JVDM,ROBOT,2020-10-20,n/a,GPS+GLO,ZECK00RUS
ZIM200CHE,IGS,Zimmerwald,Switzerland,SWISSTOPO,46.8770917,7.4650278,956.5,ZIM200CHE,TRIMBLE NETR9,TRM59800.00,NONE,ROBOT,2020-10-20,2020-10-19,GPS+GLO+GAL+BDS,ZIM200CHE
ZIM300CHE,IGS,Zimmerwald,Switzerland,SWISSTOPO,46.8770917,7.4650278,956.5,ZIM300CHE,TRIMBLE NETR9,TRM59800.00,NONE,ROBOT,2020-02-07,2020-10-19,GPS+GLO+GAL+BDS+QZSS+SBAS,ZIM300CHE
ZIMM00CHE,IGS,Zimmerwald,Switzerland,SWISSTOPO,46.8770944,7.4652722,956.4,ZIMM00CHE,TRIMBLE NETR9,TRM29659.00,NONE,ROBOT,2020-10-20,2020-10-19,GPS,ZIMM00CHE
